{"type": "FeatureCollection", "name": "synthetic", "features": [{"type": "Feature", "properties": {"id": 2, "object_type": "restriction", "restriction_type": "road"}, "geometry": {"type": "Polygon", "coordinates": [[[37.61642185404601, 55.68599385156803], [37.61607726585815, 55.695749147267094], [37.615854602722315, 55.69574663736494], [37.61619924630879, 55.68599134257822], [37.61642185404601, 55.68599385156803]]]}}, {"type": "Feature", "properties": {"id": 3, "object_type": "restriction", "restriction_type": "road"}, "geometry": {"type": "Polygon", "coordinates": [[[37.63346735047823, 55.686184770164964], [37.63346296428854, 55.68631053004439], [37.61619480473613, 55.686117101551154], [37.61619924630879, 55.68599134257822], [37.63346735047823, 55.686184770164964]]]}}, {"type": "Feature", "properties": {"id": 4, "object_type": "restriction", "restriction_type": "road"}, "geometry": {"type": "Polygon", "coordinates": [[[37.61855252988001, 55.686017845771275], [37.61820847193752, 55.69577315019529], [37.61798580846516, 55.69577064415657], [37.61832992180655, 55.686015340643486], [37.61855252988001, 55.686017845771275]]]}}, {"type": "Feature", "properties": {"id": 5, "object_type": "restriction", "restriction_type": "road"}, "geometry": {"type": "Polygon", "coordinates": [[[37.63342536695257, 55.687388471752385], [37.63342098043053, 55.687514231604816], [37.61615229076185, 55.68732079443475], [37.61615673267106, 55.68719503548888], [37.63342536695257, 55.687388471752385]]]}}, {"type": "Feature", "properties": {"id": 6, "object_type": "restriction", "restriction_type": "road"}, "geometry": {"type": "Polygon", "coordinates": [[[37.62068320892965, 55.686041803009424], [37.62033968123522, 55.69579711614499], [37.62011701742684, 55.69579461396968], [37.620460600520445, 55.68603930174367], [37.62068320892965, 55.686041803009424]]]}}, {"type": "Feature", "properties": {"id": 7, "object_type": "restriction", "restriction_type": "road"}, "geometry": {"type": "Polygon", "coordinates": [[[37.633383380245625, 55.68859217308124], [37.63337899339118, 55.68871793290665], [37.616109773566116, 55.68852448705924], [37.616114215811905, 55.688398728140434], [37.633383380245625, 55.68859217308124]]]}}, {"type": "Feature", "properties": {"id": 8, "object_type": "restriction", "restriction_type": "road"}, "geometry": {"type": "Polygon", "coordinates": [[[37.62281389118994, 55.68606572328239], [37.62247089374629, 55.69582104511604], [37.62224822960241, 55.69581854680419], [37.62259128244553, 55.68606322587866], [37.62281389118994, 55.68606572328239]]]}}, {"type": "Feature", "properties": {"id": 9, "object_type": "restriction", "restriction_type": "road"}, "geometry": {"type": "Polygon", "coordinates": [[[37.63334139035705, 55.689795874151514], [37.63333700317018, 55.68992163394991], [37.61606725314858, 55.68972817942462], [37.616071695730994, 55.689602420532886], [37.63334139035705, 55.689795874151514]]]}}, {"type": "Feature", "properties": {"id": 10, "object_type": "restriction", "restriction_type": "road"}, "geometry": {"type": "Polygon", "coordinates": [[[37.62494457665596, 55.68608960659003], [37.62460210946577, 55.69584493710835], [37.62437944498692, 55.69584244265995], [37.62472196757686, 55.686087113048345], [37.62494457665596, 55.68608960659003]]]}}, {"type": "Feature", "properties": {"id": 11, "object_type": "restriction", "restriction_type": "road"}, "geometry": {"type": "Polygon", "coordinates": [[[37.63329939728652, 55.69099957496322], [37.633295009767195, 55.691125334734586], [37.61602472950892, 55.69093187153087], [37.616029172427986, 55.69080611266622], [37.63329939728652, 55.69099957496322]]]}}, {"type": "Feature", "properties": {"id": 12, "object_type": "restriction", "restriction_type": "road"}, "geometry": {"type": "Polygon", "coordinates": [[[37.62707526532275, 55.68611345293222], [37.62673332838872, 55.69586879212178], [37.62651066357541, 55.695866301536846], [37.626852655909474, 55.68611096325262], [37.62707526532275, 55.68611345293222]]]}}, {"type": "Feature", "properties": {"id": 13, "object_type": "restriction", "restriction_type": "road"}, "geometry": {"type": "Polygon", "coordinates": [[[37.63325740103372, 55.692203275516356], [37.633253013181886, 55.69232903526072], [37.6159822026468, 55.692135563378045], [37.61598664590256, 55.69200980454046], [37.63325740103372, 55.692203275516356]]]}}, {"type": "Feature", "properties": {"id": 14, "object_type": "restriction", "restriction_type": "road"}, "geometry": {"type": "Polygon", "coordinates": [[[37.62920595718537, 55.686137262308854], [37.62886455051016, 55.695892610156214], [37.62864188536292, 55.69589012343478], [37.62898334743842, 55.68613477649133], [37.62920595718537, 55.686137262308854]]]}}, {"type": "Feature", "properties": {"id": 15, "object_type": "restriction", "restriction_type": "road"}, "geometry": {"type": "Polygon", "coordinates": [[[37.633215401598285, 55.69340697581091], [37.633211013413934, 55.693532735528265], [37.61593967256188, 55.69333925496612], [37.61594411615437, 55.69321349615559], [37.633215401598285, 55.69340697581091]]]}}, {"type": "Feature", "properties": {"id": 16, "object_type": "restriction", "restriction_type": "road"}, "geometry": {"type": "Polygon", "coordinates": [[[37.631336652238836, 55.68616103471981], [37.63099577582516, 55.69591639121155], [37.63077311034449, 55.695913908353596], [37.63111404215875, 55.686158552764375], [37.631336652238836, 55.68616103471981]]]}}, {"type": "Feature", "properties": {"id": 17, "object_type": "restriction", "restriction_type": "road"}, "geometry": {"type": "Polygon", "coordinates": [[[37.63317339897992, 55.6946106758469], [37.633169010463, 55.69473643553724], [37.61589713925383, 55.69454294629507], [37.615901583183074, 55.69441718751164], [37.63317339897992, 55.6946106758469]]]}}, {"type": "Feature", "properties": {"id": 18, "object_type": "restriction", "restriction_type": "road"}, "geometry": {"type": "Polygon", "coordinates": [[[37.63346735047823, 55.686184770164964], [37.633127004328756, 55.69594013528764], [37.63290433851518, 55.695937656293204], [37.63324474006552, 55.68618229207163], [37.63346735047823, 55.686184770164964]]]}}, {"type": "Feature", "properties": {"id": 19, "object_type": "restriction", "restriction_type": "road"}, "geometry": {"type": "Polygon", "coordinates": [[[37.633131393178274, 55.69581437562432], [37.633127004328756, 55.69594013528764], [37.615854602722315, 55.69574663736494], [37.615859046988355, 55.695620878608565], [37.633131393178274, 55.69581437562432]]]}}, {"type": "Feature", "properties": {"id": 20, "object_type": "restriction", "restriction_type": "oks"}, "geometry": {"type": "Polygon", "coordinates": [[[37.61752465055414, 55.68689092841687], [37.61753254558055, 55.686667178835805], [37.61724536336674, 55.68666394458706], [37.617053908590016, 55.68666178804816], [37.61704601083232, 55.68688553758429], [37.617039669387424, 55.68706519329687], [37.61723112613389, 55.687067349868194], [37.61723746670156, 55.68688769414118], [37.61752465055414, 55.68689092841687]]]}}, {"type": "Feature", "properties": {"id": 21, "object_type": "restriction", "restriction_type": "oks"}, "geometry": {"type": "Polygon", "coordinates": [[[37.61793253142498, 55.68785723858854], [37.61792609031654, 55.6880398282187], [37.61730726134331, 55.68803286024095], [37.61731370533354, 55.68785027065821], [37.61793253142498, 55.68785723858854]]]}}, {"type": "Feature", "properties": {"id": 22, "object_type": "restriction", "restriction_type": "oks"}, "geometry": {"type": "Polygon", "coordinates": [[[37.616939907071, 55.687884001423186], [37.61693313724999, 55.68807577121423], [37.61650309115954, 55.68807092577431], [37.61650986308389, 55.68787915601791], [37.616939907071, 55.687884001423186]]]}}, {"type": "Feature", "properties": {"id": 23, "object_type": "restriction", "restriction_type": "oks"}, "geometry": {"type": "Polygon", "coordinates": [[[37.61780376300721, 55.68925451613768], [37.617814659035524, 55.68894568067249], [37.61744513704167, 55.688941519968424], [37.617198789099554, 55.68893874554807], [37.617187888219995, 55.68924758093344], [37.6171815468649, 55.689427236587214], [37.61742789787637, 55.689430011058086], [37.61743423810261, 55.68925035538574], [37.61780376300721, 55.68925451613768]]]}}, {"type": "Feature", "properties": {"id": 24, "object_type": "restriction", "restriction_type": "oks"}, "geometry": {"type": "Polygon", "coordinates": [[[37.617691502568725, 55.69038411861501], [37.617686114153216, 55.69053682597375], [37.6169952538367, 55.69052904564119], [37.617000644943175, 55.69037633832673], [37.617691502568725, 55.69038411861501]]]}}, {"type": "Feature", "properties": {"id": 25, "object_type": "restriction", "restriction_type": "oks"}, "geometry": {"type": "Polygon", "coordinates": [[[37.61719409907465, 55.69164974253001], [37.617189123698836, 55.691790686976276], [37.61660421401653, 55.69178409783657], [37.61660919149522, 55.69164315342492], [37.61719409907465, 55.69164974253001]]]}}, {"type": "Feature", "properties": {"id": 26, "object_type": "restriction", "restriction_type": "oks"}, "geometry": {"type": "Polygon", "coordinates": [[[37.617428299130204, 55.691391968395806], [37.61742116765127, 55.6915940276013], [37.61680907223913, 55.69158713327901], [37.616816206872855, 55.691385074125435], [37.617428299130204, 55.691391968395806]]]}}, {"type": "Feature", "properties": {"id": 27, "object_type": "restriction", "restriction_type": "oks"}, "geometry": {"type": "Polygon", "coordinates": [[[37.617706969591126, 55.69257098653389], [37.61769986573729, 55.692772294700106], [37.61703512280819, 55.6927648088722], [37.61704223007558, 55.692563500762134], [37.617706969591126, 55.69257098653389]]]}}, {"type": "Feature", "properties": {"id": 28, "object_type": "restriction", "restriction_type": "oks"}, "geometry": {"type": "Polygon", "coordinates": [[[37.617171009283396, 55.69223031526307], [37.61716518343195, 55.692395345840396], [37.61656176812229, 55.69238854812403], [37.61656759651393, 55.69222351758851], [37.617171009283396, 55.69223031526307]]]}}, {"type": "Feature", "properties": {"id": 29, "object_type": "restriction", "restriction_type": "oks"}, "geometry": {"type": "Polygon", "coordinates": [[[37.61753745017056, 55.69381660459462], [37.6175269258957, 55.69411478878455], [37.617016961121884, 55.694109045659474], [37.617027489275905, 55.69381086153338], [37.61753745017056, 55.69381660459462]]]}}, {"type": "Feature", "properties": {"id": 30, "object_type": "restriction", "restriction_type": "oks"}, "geometry": {"type": "Polygon", "coordinates": [[[37.61723974552833, 55.6946310006434], [37.6172298301035, 55.69491186533624], [37.616700729969885, 55.69490590545585], [37.61671064918578, 55.69462504082541], [37.61723974552833, 55.6946310006434]]]}}, {"type": "Feature", "properties": {"id": 31, "object_type": "restriction", "restriction_type": "oks"}, "geometry": {"type": "Polygon", "coordinates": [[[37.61715910922748, 55.6950240250955], [37.617149363748744, 55.69530005574895], [37.616579953792495, 55.695293641378846], [37.616589703280965, 55.695017610791396], [37.61715910922748, 55.6950240250955]]]}}, {"type": "Feature", "properties": {"id": 32, "object_type": "restriction", "restriction_type": "oks"}, "geometry": {"type": "Polygon", "coordinates": [[[37.6176929686092, 55.69528743141068], [37.617684719455475, 55.69552116846804], [37.61725797142847, 55.69551636330043], [37.6172662231269, 55.69528262628493], [37.6176929686092, 55.69528743141068]]]}}, {"type": "Feature", "properties": {"id": 33, "object_type": "restriction", "restriction_type": "oks"}, "geometry": {"type": "Polygon", "coordinates": [[[37.61962423594525, 55.687003907766346], [37.61963447766638, 55.686713210471694], [37.619382521423134, 55.6867103772916], [37.61921455061926, 55.6867084882177], [37.61920430578487, 55.68699918546118], [37.61919797420785, 55.6871788413338], [37.61936594702665, 55.6871807304408], [37.619372277834046, 55.687001074555546], [37.61962423594525, 55.687003907766346]]]}}, {"type": "Feature", "properties": {"id": 34, "object_type": "restriction", "restriction_type": "oks"}, "geometry": {"type": "Polygon", "coordinates": [[[37.62008504241251, 55.686371515955514], [37.62007859706774, 55.68655452101163], [37.619591651928154, 55.686549046728636], [37.61959809954559, 55.68636604170986], [37.62008504241251, 55.686371515955514]]]}}, {"type": "Feature", "properties": {"id": 35, "object_type": "restriction", "restriction_type": "oks"}, "geometry": {"type": "Polygon", "coordinates": [[[37.61955612834759, 55.68756833316007], [37.61954893382313, 55.687772522329226], [37.61914388505791, 55.68776796719636], [37.619151081691726, 55.68756377806186], [37.61955612834759, 55.68756833316007]]]}}, {"type": "Feature", "properties": {"id": 36, "object_type": "restriction", "restriction_type": "oks"}, "geometry": {"type": "Polygon", "coordinates": [[[37.619074316459745, 55.6893289230303], [37.61906705082076, 55.689535044883606], [37.61859782269333, 55.68952976615979], [37.61860509079919, 55.689323644347034], [37.619074316459745, 55.6893289230303]]]}}, {"type": "Feature", "properties": {"id": 37, "object_type": "restriction", "restriction_type": "oks"}, "geometry": {"type": "Polygon", "coordinates": [[[37.61940434513024, 55.6902960955567], [37.61939632571776, 55.69052364749335], [37.618745023227156, 55.69051632183287], [37.61875304641988, 55.690288769958336], [37.61940434513024, 55.6902960955567]]]}}, {"type": "Feature", "properties": {"id": 38, "object_type": "restriction", "restriction_type": "oks"}, "geometry": {"type": "Polygon", "coordinates": [[[37.62013654336367, 55.690499124426736], [37.62012990764489, 55.69068751260931], [37.61971364903306, 55.690682833551215], [37.61972028675205, 55.6904944454015], [37.62013654336367, 55.690499124426736]]]}}, {"type": "Feature", "properties": {"id": 39, "object_type": "restriction", "restriction_type": "oks"}, "geometry": {"type": "Polygon", "coordinates": [[[37.61966066751162, 55.69170500091728], [37.61965509411148, 55.69186316826236], [37.61907783572764, 55.69185667693952], [37.61908341145676, 55.69169850963271], [37.61966066751162, 55.69170500091728]]]}}, {"type": "Feature", "properties": {"id": 40, "object_type": "restriction", "restriction_type": "oks"}, "geometry": {"type": "Polygon", "coordinates": [[[37.62003854600108, 55.69139950264261], [37.62003242232158, 55.691573335865044], [37.6194470121088, 55.691566754628255], [37.61945313838408, 55.69139292144845], [37.62003854600108, 55.69139950264261]]]}}, {"type": "Feature", "properties": {"id": 41, "object_type": "restriction", "restriction_type": "oks"}, "geometry": {"type": "Polygon", "coordinates": [[[37.61972336490385, 55.692751601972134], [37.61972941534439, 55.69257989387864], [37.619424658705846, 55.6925764674194], [37.61922148765001, 55.69257418269316], [37.61921543498468, 55.6927458907501], [37.61920910209656, 55.69292554645432], [37.619412274973435, 55.692927831210476], [37.61941860693043, 55.692748175490976], [37.61972336490385, 55.692751601972134]]]}}, {"type": "Feature", "properties": {"id": 42, "object_type": "restriction", "restriction_type": "social_area", "name": "школа"}, "geometry": {"type": "Polygon", "coordinates": [[[37.62007206523687, 55.693457659699874], [37.6200391529863, 55.69439186952651], [37.61838513936002, 55.694373268560206], [37.61841809102847, 55.6934390593812], [37.62007206523687, 55.693457659699874]]]}}, {"type": "Feature", "properties": {"id": 43, "object_type": "restriction", "restriction_type": "oks"}, "geometry": {"type": "Polygon", "coordinates": [[[37.619245085766885, 55.69491358879322], [37.619240221236055, 55.695051581032295], [37.618556441033924, 55.69504388959163], [37.6185613079719, 55.69490589739212], [37.619245085766885, 55.69491358879322]]]}}, {"type": "Feature", "properties": {"id": 44, "object_type": "restriction", "restriction_type": "oks"}, "geometry": {"type": "Polygon", "coordinates": [[[37.62194781887458, 55.68629693269339], [37.62193822716632, 55.68656964188152], [37.62137078090368, 55.686563271011266], [37.62138037655849, 55.686290561887894], [37.62194781887458, 55.68629693269339]]]}}, {"type": "Feature", "properties": {"id": 45, "object_type": "restriction", "restriction_type": "oks"}, "geometry": {"type": "Polygon", "coordinates": [[[37.62140621116811, 55.68666520838812], [37.621400629265224, 55.686823847735894], [37.62099025813333, 55.686819238871074], [37.620995841696505, 55.68666059955054], [37.62140621116811, 55.68666520838812]]]}}, {"type": "Feature", "properties": {"id": 46, "object_type": "restriction", "restriction_type": "oks"}, "geometry": {"type": "Polygon", "coordinates": [[[37.62155295259299, 55.68698493809351], [37.62154749197118, 55.687140145275656], [37.62104220378636, 55.687134470834465], [37.62104766640829, 55.68697926368512], [37.62155295259299, 55.68698493809351]]]}}, {"type": "Feature", "properties": {"id": 47, "object_type": "restriction", "restriction_type": "oks"}, "geometry": {"type": "Polygon", "coordinates": [[[37.62197479456829, 55.68753903932444], [37.621969200067845, 55.68769809710011], [37.62128949510388, 55.687690465850736], [37.62129509236165, 55.6875314081203], [37.62197479456829, 55.68753903932444]]]}}, {"type": "Feature", "properties": {"id": 48, "object_type": "restriction", "restriction_type": "oks"}, "geometry": {"type": "Polygon", "coordinates": [[[37.62222656194334, 55.688080960195585], [37.622221361031386, 55.688228851889725], [37.62181137660614, 55.68822425019957], [37.621816579064536, 55.68807635853079], [37.62222656194334, 55.688080960195585]]]}}, {"type": "Feature", "properties": {"id": 49, "object_type": "restriction", "restriction_type": "oks"}, "geometry": {"type": "Polygon", "coordinates": [[[37.621771890332816, 55.689136728484314], [37.62178247711903, 55.688835792591995], [37.62143624275458, 55.68883190532064], [37.621205419892014, 55.688829313264144], [37.62119482867656, 55.6891302490838], [37.62118850572089, 55.68930990504408], [37.621419331412845, 55.689312497147], [37.621425653310816, 55.689132841169375], [37.621771890332816, 55.689136728484314]]]}}, {"type": "Feature", "properties": {"id": 50, "object_type": "restriction", "restriction_type": "oks"}, "geometry": {"type": "Polygon", "coordinates": [[[37.62138356222226, 55.69020351646815], [37.621389034521385, 55.69004801379242], [37.62107016040178, 55.690044432775345], [37.62085757769531, 55.690042044970696], [37.620852103288236, 55.690197547611845], [37.62084577850851, 55.69037720351482], [37.62105836303231, 55.69037959134929], [37.62106468683788, 55.69019993543034], [37.62138356222226, 55.69020351646815]]]}}, {"type": "Feature", "properties": {"id": 51, "object_type": "restriction", "restriction_type": "oks"}, "geometry": {"type": "Polygon", "coordinates": [[[37.62222877552416, 55.69016491910638], [37.62222338693038, 55.69031813588478], [37.62158919941199, 55.690311017361346], [37.62159459048422, 55.69015780062361], [37.62222877552416, 55.69016491910638]]]}}, {"type": "Feature", "properties": {"id": 52, "object_type": "restriction", "restriction_type": "oks"}, "geometry": {"type": "Polygon", "coordinates": [[[37.62164655205426, 55.69155517661513], [37.62165331752387, 55.6913628996282], [37.62127613883332, 55.69135866463904], [37.62102468642883, 55.691355840669424], [37.62101791787603, 55.691548117605755], [37.62101159353687, 55.691727773481475], [37.62126304832697, 55.69173059749023], [37.6212693715138, 55.69155094159561], [37.62164655205426, 55.69155517661513]]]}}, {"type": "Feature", "properties": {"id": 53, "object_type": "restriction", "restriction_type": "oks"}, "geometry": {"type": "Polygon", "coordinates": [[[37.622005842757325, 55.69165805545443], [37.62199614092389, 55.691933851695126], [37.62151903096836, 55.69192849585118], [37.62152873615829, 55.691652699665546], [37.622005842757325, 55.69165805545443]]]}}, {"type": "Feature", "properties": {"id": 54, "object_type": "restriction", "restriction_type": "oks"}, "geometry": {"type": "Polygon", "coordinates": [[[37.62175793469019, 55.692503906207364], [37.62175155608367, 55.692685194462854], [37.62114346648854, 55.69267836682858], [37.621149847907155, 55.69249707861922], [37.62175793469019, 55.692503906207364]]]}}, {"type": "Feature", "properties": {"id": 55, "object_type": "restriction", "restriction_type": "oks"}, "geometry": {"type": "Polygon", "coordinates": [[[37.621371103762826, 55.69304019132343], [37.62136584696259, 55.693189551593065], [37.62088989285755, 55.69318420637462], [37.62089515147122, 55.69303484613475], [37.621371103762826, 55.69304019132343]]]}}, {"type": "Feature", "properties": {"id": 56, "object_type": "restriction", "restriction_type": "oks"}, "geometry": {"type": "Polygon", "coordinates": [[[37.621929845807195, 55.693922165556494], [37.62192392447822, 55.69409046948865], [37.62151326981954, 55.694085859651636], [37.621519192911656, 55.693917555748385], [37.621929845807195, 55.693922165556494]]]}}, {"type": "Feature", "properties": {"id": 57, "object_type": "restriction", "restriction_type": "oks"}, "geometry": {"type": "Polygon", "coordinates": [[[37.621320812669325, 55.693933655095556], [37.621314515408955, 55.694112565016106], [37.620623857244055, 55.69410480776215], [37.62063015765662, 55.693925897893315], [37.621320812669325, 55.693933655095556]]]}}, {"type": "Feature", "properties": {"id": 58, "object_type": "restriction", "restriction_type": "oks"}, "geometry": {"type": "Polygon", "coordinates": [[[37.621143337963424, 55.69517393529881], [37.62113814598261, 55.69532141766826], [37.62056520551786, 55.69531498214097], [37.62057039965436, 55.695167499806885], [37.621143337963424, 55.69517393529881]]]}}, {"type": "Feature", "properties": {"id": 59, "object_type": "restriction", "restriction_type": "oks"}, "geometry": {"type": "Polygon", "coordinates": [[[37.621911351107464, 55.694737207536896], [37.621903440813554, 55.69496203418104], [37.62145679296708, 55.69495702021976], [37.621464705822774, 55.69473219361763], [37.621911351107464, 55.694737207536896]]]}}, {"type": "Feature", "properties": {"id": 60, "object_type": "restriction", "restriction_type": "oks"}, "geometry": {"type": "Polygon", "coordinates": [[[37.62353499159424, 55.68694049426337], [37.62352931381814, 55.687102106324296], [37.62307468171379, 55.687097008189404], [37.623080361363755, 55.68693539615919], [37.62353499159424, 55.68694049426337]]]}}, {"type": "Feature", "properties": {"id": 61, "object_type": "restriction", "restriction_type": "oks"}, "geometry": {"type": "Polygon", "coordinates": [[[37.62438203407104, 55.68668565681579], [37.62437282897387, 55.68694783352278], [37.623878110054235, 55.68694228917181], [37.623887318459296, 55.68668011251899], [37.62438203407104, 55.68668565681579]]]}}, {"type": "Feature", "properties": {"id": 62, "object_type": "restriction", "restriction_type": "oks"}, "geometry": {"type": "Polygon", "coordinates": [[[37.623355352617466, 55.68797316599055], [37.62336583470927, 55.68767485022075], [37.62310028064934, 55.68767187223585], [37.62292324463704, 55.6876698865936], [37.62291275917783, 55.687968202308205], [37.62290644437345, 55.68814785843238], [37.623083482543905, 55.68814984411001], [37.623089796537094, 55.687970187972546], [37.623355352617466, 55.68797316599055]]]}}, {"type": "Feature", "properties": {"id": 63, "object_type": "restriction", "restriction_type": "oks"}, "geometry": {"type": "Polygon", "coordinates": [[[37.62443626593693, 55.6880367138085], [37.624426464436155, 55.6883158737783], [37.623741715796044, 55.688308199664], [37.62375152217217, 55.688029039774044], [37.62443626593693, 55.6880367138085]]]}}, {"type": "Feature", "properties": {"id": 64, "object_type": "restriction", "restriction_type": "oks"}, "geometry": {"type": "Polygon", "coordinates": [[[37.62395123704016, 55.68872074512025], [37.62394461808108, 55.68890919122677], [37.62348173807248, 55.688904002281895], [37.62348835925633, 55.688715556211804], [37.62395123704016, 55.68872074512025]]]}}, {"type": "Feature", "properties": {"id": 65, "object_type": "restriction", "restriction_type": "oks"}, "geometry": {"type": "Polygon", "coordinates": [[[37.624266988359004, 55.68920325428788], [37.624260696525496, 55.68938242484671], [37.623588965508496, 55.68937489586241], [37.62359526041174, 55.68919572535385], [37.624266988359004, 55.68920325428788]]]}}, {"type": "Feature", "properties": {"id": 66, "object_type": "restriction", "restriction_type": "oks"}, "geometry": {"type": "Polygon", "coordinates": [[[37.623504374124465, 55.69031551917664], [37.62349347648211, 55.69062566165389], [37.62279928901586, 55.6906178767003], [37.622810192149785, 55.69030773431303], [37.623504374124465, 55.69031551917664]]]}}, {"type": "Feature", "properties": {"id": 67, "object_type": "restriction", "restriction_type": "oks"}, "geometry": {"type": "Polygon", "coordinates": [[[37.62349178939862, 55.689945867957505], [37.62348349415107, 55.690181949009016], [37.6229978652182, 55.6901765032715], [37.62300616339004, 55.6899404222679], [37.62349178939862, 55.689945867957505]]]}}, {"type": "Feature", "properties": {"id": 68, "object_type": "restriction", "restriction_type": "oks"}, "geometry": {"type": "Polygon", "coordinates": [[[37.623677009239344, 55.69161132568772], [37.62367085027148, 55.69178662161309], [37.623070001570625, 55.691779884610185], [37.623076163225164, 55.69160458872881], [37.623677009239344, 55.69161132568772]]]}}, {"type": "Feature", "properties": {"id": 69, "object_type": "restriction", "restriction_type": "oks"}, "geometry": {"type": "Polygon", "coordinates": [[[37.62438519441488, 55.69124747515585], [37.624376340536784, 55.691499605965575], [37.62374715406705, 55.691492554742304], [37.623756011991645, 55.69124042399883], [37.62438519441488, 55.69124747515585]]]}}, {"type": "Feature", "properties": {"id": 70, "object_type": "restriction", "restriction_type": "oks"}, "geometry": {"type": "Polygon", "coordinates": [[[37.62419295617258, 55.69255069218178], [37.62418385359042, 55.692809856317645], [37.62368709530412, 55.69280428879185], [37.62369620117037, 55.692545124709774], [37.62419295617258, 55.69255069218178]]]}}, {"type": "Feature", "properties": {"id": 71, "object_type": "restriction", "restriction_type": "oks"}, "geometry": {"type": "Polygon", "coordinates": [[[37.6239375206368, 55.69286837873502], [37.623928139434376, 55.69313542275099], [37.62330749499901, 55.6931284651692], [37.62331688042934, 55.69286142122247], [37.6239375206368, 55.69286837873502]]]}}, {"type": "Feature", "properties": {"id": 72, "object_type": "restriction", "restriction_type": "oks"}, "geometry": {"type": "Polygon", "coordinates": [[[37.62352298568871, 55.69366354989458], [37.62351713778495, 55.69382996091928], [37.62293784816238, 55.69382346515531], [37.62294369852531, 55.6936570541709], [37.62352298568871, 55.69366354989458]]]}}, {"type": "Feature", "properties": {"id": 73, "object_type": "restriction", "restriction_type": "oks"}, "geometry": {"type": "Polygon", "coordinates": [[[37.623299162257204, 55.69394621828154], [37.62328964162371, 55.69421709459964], [37.62271089194653, 55.69421060385339], [37.622720416579284, 55.69393972760083], [37.623299162257204, 55.69394621828154]]]}}, {"type": "Feature", "properties": {"id": 74, "object_type": "restriction", "restriction_type": "oks"}, "geometry": {"type": "Polygon", "coordinates": [[[37.62429252621773, 55.69414529053373], [37.62428753690137, 55.694287346130736], [37.62365777276514, 55.69428028824756], [37.62366276436372, 55.69413823268794], [37.62429252621773, 55.69414529053373]]]}}, {"type": "Feature", "properties": {"id": 75, "object_type": "restriction", "restriction_type": "oks"}, "geometry": {"type": "Polygon", "coordinates": [[[37.62423952427251, 55.695469186334], [37.62423426309352, 55.695618969126464], [37.62360224732006, 55.69561188585865], [37.62360751091414, 55.69546210310573], [37.62423952427251, 55.695469186334]]]}}, {"type": "Feature", "properties": {"id": 76, "object_type": "restriction", "restriction_type": "oks"}, "geometry": {"type": "Polygon", "coordinates": [[[37.62395792385148, 55.694756780141006], [37.6239470880175, 55.69506521377127], [37.623353253070604, 55.69505855706424], [37.62336409357719, 55.694750123510495], [37.62395792385148, 55.694756780141006]]]}}, {"type": "Feature", "properties": {"id": 77, "object_type": "restriction", "restriction_type": "oks"}, "geometry": {"type": "Polygon", "coordinates": [[[37.625643207126124, 55.68696887604801], [37.62563642947442, 55.68716209058332], [37.62518650687565, 55.68715705299762], [37.625193286744434, 55.68696383849858], [37.625643207126124, 55.68696887604801]]]}}, {"type": "Feature", "properties": {"id": 78, "object_type": "restriction", "restriction_type": "oks"}, "geometry": {"type": "Polygon", "coordinates": [[[37.62632761486566, 55.68662053596946], [37.6263221400099, 55.68677669094741], [37.62561950188983, 55.68676882697769], [37.62562497954384, 55.68661267204549], [37.62632761486566, 55.68662053596946]]]}}, {"type": "Feature", "properties": {"id": 79, "object_type": "restriction", "restriction_type": "oks"}, "geometry": {"type": "Polygon", "coordinates": [[[37.62558957660664, 55.6884145585274], [37.62559795322184, 55.68817578043505], [37.625258609548304, 55.68817198105257], [37.625032380477705, 55.688169447610015], [37.62502400041813, 55.68840822564599], [37.62501769518939, 55.688587881916334], [37.62524392667437, 55.688590415398394], [37.62525023086648, 55.6884107591111], [37.62558957660664, 55.6884145585274]]]}}, {"type": "Feature", "properties": {"id": 80, "object_type": "restriction", "restriction_type": "oks"}, "geometry": {"type": "Polygon", "coordinates": [[[37.625697075555955, 55.68761165334785], [37.6256907080806, 55.687793177541145], [37.62521613592667, 55.68778786417361], [37.62522250559915, 55.68760634001625], [37.625697075555955, 55.68761165334785]]]}}, {"type": "Feature", "properties": {"id": 81, "object_type": "restriction", "restriction_type": "oks"}, "geometry": {"type": "Polygon", "coordinates": [[[37.62626829654737, 55.689487382534885], [37.6262746018122, 55.68930756769879], [37.625924299755034, 55.6893036476002], [37.625690765098284, 55.68930103364606], [37.62568445715576, 55.68948084843837], [37.625678154702065, 55.68966050472685], [37.625911691500036, 55.68966311871601], [37.625917992883586, 55.689483462410024], [37.62626829654737, 55.689487382534885]]]}}, {"type": "Feature", "properties": {"id": 82, "object_type": "restriction", "restriction_type": "oks"}, "geometry": {"type": "Polygon", "coordinates": [[[37.62620262644186, 55.68896327879642], [37.62619305635634, 55.68923618888502], [37.625523363158834, 55.68922869327633], [37.62553293790592, 55.68895578326396], [37.62620262644186, 55.68896327879642]]]}}, {"type": "Feature", "properties": {"id": 83, "object_type": "restriction", "restriction_type": "oks"}, "geometry": {"type": "Polygon", "coordinates": [[[37.62616946004033, 55.690063177630336], [37.62617433742476, 55.689924096580576], [37.625763293660015, 55.68991949634589], [37.62548926454964, 55.689916428758515], [37.625484384734925, 55.690055509768534], [37.62547808122831, 55.69023516602501], [37.625752112566516, 55.69023823364883], [37.625758414817405, 55.6900585773718], [37.62616946004033, 55.690063177630336]]]}}, {"type": "Feature", "properties": {"id": 84, "object_type": "restriction", "restriction_type": "oks"}, "geometry": {"type": "Polygon", "coordinates": [[[37.62625614736434, 55.69035521307456], [37.626247176629995, 55.690611028189466], [37.62575534039367, 55.690605523940356], [37.62576431433728, 55.69034970887793], [37.62625614736434, 55.69035521307456]]]}}, {"type": "Feature", "properties": {"id": 85, "object_type": "restriction", "restriction_type": "park"}, "geometry": {"type": "Polygon", "coordinates": [[[37.62651730539509, 55.6911395634679], [37.62648580955183, 55.69203784492175], [37.62489550304731, 55.69202004377029], [37.624927035329655, 55.69112176291236], [37.62651730539509, 55.6911395634679]]]}}, {"type": "Feature", "properties": {"id": 86, "object_type": "restriction", "restriction_type": "oks"}, "geometry": {"type": "Polygon", "coordinates": [[[37.62623013681432, 55.692542027572635], [37.626221144074734, 55.69279844425833], [37.62568451029208, 55.69279243863909], [37.62569350654178, 55.692536022010785], [37.62623013681432, 55.692542027572635]]]}}, {"type": "Feature", "properties": {"id": 87, "object_type": "restriction", "restriction_type": "oks"}, "geometry": {"type": "Polygon", "coordinates": [[[37.62558782835576, 55.69399751336261], [37.625583075958524, 55.694132951760054], [37.625120617425566, 55.694127774087555], [37.62512537142064, 55.69399233571625], [37.62558782835576, 55.69399751336261]]]}}, {"type": "Feature", "properties": {"id": 88, "object_type": "restriction", "restriction_type": "oks"}, "geometry": {"type": "Polygon", "coordinates": [[[37.626076105463156, 55.69487106761815], [37.62606854699523, 55.69508654508475], [37.625447359215414, 55.695079592430844], [37.62545492109808, 55.694864115020096], [37.626076105463156, 55.69487106761815]]]}}, {"type": "Feature", "properties": {"id": 89, "object_type": "restriction", "restriction_type": "oks"}, "geometry": {"type": "Polygon", "coordinates": [[[37.62594193996582, 55.69538536780787], [37.62593293628196, 55.695642015248424], [37.62536794670992, 55.695635691147366], [37.62537695409307, 55.69537904376731], [37.62594193996582, 55.69538536780787]]]}}, {"type": "Feature", "properties": {"id": 90, "object_type": "restriction", "restriction_type": "oks"}, "geometry": {"type": "Polygon", "coordinates": [[[37.62843869285525, 55.68675829452456], [37.628429285665746, 55.6870270191406], [37.62787506980884, 55.68702082619467], [37.62788448079663, 55.686752101640636], [37.62843869285525, 55.68675829452456]]]}}, {"type": "Feature", "properties": {"id": 91, "object_type": "restriction", "restriction_type": "oks"}, "geometry": {"type": "Polygon", "coordinates": [[[37.628610793988535, 55.687933206358586], [37.62860125090203, 55.68820583513948], [37.62793457354955, 55.688198386270386], [37.62794412127169, 55.687925757565175], [37.628610793988535, 55.687933206358586]]]}}, {"type": "Feature", "properties": {"id": 92, "object_type": "restriction", "restriction_type": "oks"}, "geometry": {"type": "Polygon", "coordinates": [[[37.628284062661386, 55.68878755602127], [37.628278724467656, 55.68894001793734], [37.62779504802012, 55.68893461290437], [37.6278003880947, 55.68878215101901], [37.628284062661386, 55.68878755602127]]]}}, {"type": "Feature", "properties": {"id": 93, "object_type": "restriction", "restriction_type": "oks"}, "geometry": {"type": "Polygon", "coordinates": [[[37.62771482995584, 55.689238201873465], [37.62770732554482, 55.68945243922711], [37.62728846641234, 55.68944775671425], [37.62729597311215, 55.689233519397995], [37.62771482995584, 55.689238201873465]]]}}, {"type": "Feature", "properties": {"id": 94, "object_type": "restriction", "restriction_type": "oks"}, "geometry": {"type": "Polygon", "coordinates": [[[37.628263102166784, 55.69033675234811], [37.62827215397209, 55.690078243182036], [37.62795692155508, 55.69007472074795], [37.62774676664925, 55.69007237200908], [37.62773771137965, 55.69033088111859], [37.627731418139916, 55.690510537536476], [37.62794157539451, 55.690512886313705], [37.6279478676712, 55.690333229880096], [37.628263102166784, 55.69033675234811]]]}}, {"type": "Feature", "properties": {"id": 95, "object_type": "restriction", "restriction_type": "oks"}, "geometry": {"type": "Polygon", "coordinates": [[[37.628216413630824, 55.691176186632994], [37.628208751285015, 55.691394996778136], [37.62760164997315, 55.69138821206336], [37.62760931570743, 55.691169401973546], [37.628216413630824, 55.691176186632994]]]}}, {"type": "Feature", "properties": {"id": 96, "object_type": "restriction", "restriction_type": "oks"}, "geometry": {"type": "Polygon", "coordinates": [[[37.62866348659841, 55.69151696704507], [37.62865414645706, 55.69178377240429], [37.628162147536145, 55.69177827607225], [37.6281714910259, 55.691511470767665], [37.62866348659841, 55.69151696704507]]]}}, {"type": "Feature", "properties": {"id": 97, "object_type": "restriction", "restriction_type": "oks"}, "geometry": {"type": "Polygon", "coordinates": [[[37.62760803744049, 55.693207329387796], [37.62761806944015, 55.692920994453054], [37.627244652205945, 55.69291681994163], [37.626995707437665, 55.6929140363033], [37.62698567089206, 55.6932003711638], [37.62697937352772, 55.69338002744063], [37.627228321255295, 55.6933828111273], [37.62723461747872, 55.69320315483182], [37.62760803744049, 55.693207329387796]]]}}, {"type": "Feature", "properties": {"id": 98, "object_type": "restriction", "restriction_type": "oks"}, "geometry": {"type": "Polygon", "coordinates": [[[37.628257565869426, 55.69247203040546], [37.628251652616385, 55.69264088960623], [37.62760425618357, 55.69263365481393], [37.62761017222523, 55.6924647956587], [37.628257565869426, 55.69247203040546]]]}}, {"type": "Feature", "properties": {"id": 99, "object_type": "restriction", "restriction_type": "oks"}, "geometry": {"type": "Polygon", "coordinates": [[[37.62853797419007, 55.69287273112995], [37.62853046638375, 55.693087164800296], [37.62782338049983, 55.693079264448656], [37.627830892173975, 55.69286483084146], [37.62853797419007, 55.69287273112995]]]}}, {"type": "Feature", "properties": {"id": 100, "object_type": "restriction", "restriction_type": "oks"}, "geometry": {"type": "Polygon", "coordinates": [[[37.628326347483075, 55.69423894368729], [37.628320606302495, 55.694402886535], [37.627776881568685, 55.694396810978596], [37.627782625023286, 55.694232868167994], [37.628326347483075, 55.69423894368729]]]}}, {"type": "Feature", "properties": {"id": 101, "object_type": "restriction", "restriction_type": "oks"}, "geometry": {"type": "Polygon", "coordinates": [[[37.62792451645563, 55.693631858455326], [37.62791784720159, 55.69382225138748], [37.62738008186896, 55.69381624062142], [37.62738675373491, 55.69362584773192], [37.62792451645563, 55.693631858455326]]]}}, {"type": "Feature", "properties": {"id": 102, "object_type": "restriction", "restriction_type": "oks"}, "geometry": {"type": "Polygon", "coordinates": [[[37.62837215083015, 55.69477326636536], [37.62836714931303, 55.694916089677484], [37.62766566979826, 55.69490825124659], [37.6276706738713, 55.69476542797619], [37.62837215083015, 55.69477326636536]]]}}, {"type": "Feature", "properties": {"id": 103, "object_type": "restriction", "restriction_type": "oks"}, "geometry": {"type": "Polygon", "coordinates": [[[37.6280275691122, 55.69510878953276], [37.62801854928535, 55.69536629079251], [37.62738160024232, 55.695359171836735], [37.627390624253465, 55.695101670645315], [37.6280275691122, 55.69510878953276]]]}}, {"type": "Feature", "properties": {"id": 104, "object_type": "restriction", "restriction_type": "oks"}, "geometry": {"type": "Polygon", "coordinates": [[[37.63015612569929, 55.686762963991804], [37.63014725065472, 55.68701680547091], [37.62960906747532, 55.68701079924637], [37.629617946004025, 55.686756957824095], [37.63015612569929, 55.686762963991804]]]}}, {"type": "Feature", "properties": {"id": 105, "object_type": "restriction", "restriction_type": "metro"}, "geometry": {"type": "Polygon", "coordinates": [[[37.630107235487735, 55.68765702753627], [37.63009467192399, 55.68801634087969], [37.62945861343263, 55.68800924191995], [37.62947118282529, 55.687649928671604], [37.630107235487735, 55.68765702753627]]]}}, {"type": "Feature", "properties": {"id": 106, "object_type": "restriction", "restriction_type": "oks"}, "geometry": {"type": "Polygon", "coordinates": [[[37.62999828954375, 55.68804323954495], [37.629987330630975, 55.688356631426124], [37.629300544668304, 55.688348965597434], [37.629311509070575, 55.688035573805806], [37.62999828954375, 55.68804323954495]]]}}, {"type": "Feature", "properties": {"id": 107, "object_type": "restriction", "restriction_type": "oks"}, "geometry": {"type": "Polygon", "coordinates": [[[37.63045109907238, 55.6892744319908], [37.630441212048346, 55.689557251782794], [37.629992751481076, 55.68955224829259], [37.630002641740134, 55.68926942855333], [37.63045109907238, 55.6892744319908]]]}}, {"type": "Feature", "properties": {"id": 108, "object_type": "restriction", "restriction_type": "oks"}, "geometry": {"type": "Polygon", "coordinates": [[[37.629887596339, 55.68924270103921], [37.629881287020396, 55.68942310657801], [37.62930412463919, 55.68941666420934], [37.62931043661357, 55.68923625871385], [37.629887596339, 55.68924270103921]]]}}, {"type": "Feature", "properties": {"id": 109, "object_type": "restriction", "restriction_type": "oks"}, "geometry": {"type": "Polygon", "coordinates": [[[37.63065413835833, 55.689997405153356], [37.630649046385784, 55.69014308006136], [37.630240207129134, 55.69013851942267], [37.6302453006208, 55.689992844539425], [37.63065413835833, 55.689997405153356]]]}}, {"type": "Feature", "properties": {"id": 110, "object_type": "restriction", "restriction_type": "oks"}, "geometry": {"type": "Polygon", "coordinates": [[[37.629790172081336, 55.68997550094336], [37.62978472133404, 55.69013134165993], [37.6293001489538, 55.690125932648336], [37.62930560162727, 55.68997009196319], [37.629790172081336, 55.68997550094336]]]}}, {"type": "Feature", "properties": {"id": 111, "object_type": "restriction", "restriction_type": "oks"}, "geometry": {"type": "Polygon", "coordinates": [[[37.62985803518656, 55.691451109918134], [37.62984818760267, 55.691732656512876], [37.629361788656944, 55.69172722748003], [37.629371639734025, 55.691445680942245], [37.62985803518656, 55.691451109918134]]]}}, {"type": "Feature", "properties": {"id": 112, "object_type": "restriction", "restriction_type": "oks"}, "geometry": {"type": "Polygon", "coordinates": [[[37.630557587004525, 55.69128838522659], [37.63054918410323, 55.6915287522867], [37.63007355219445, 55.69152344615477], [37.630081958011985, 55.691283079142195], [37.630557587004525, 55.69128838522659]]]}}, {"type": "Feature", "properties": {"id": 113, "object_type": "restriction", "restriction_type": "oks"}, "geometry": {"type": "Polygon", "coordinates": [[[37.63038380441682, 55.69181830041331], [37.63037470849051, 55.69207845325282], [37.62984084928676, 55.69207249669886], [37.62984994875584, 55.69181234391711], [37.63038380441682, 55.69181830041331]]]}}, {"type": "Feature", "properties": {"id": 114, "object_type": "restriction", "restriction_type": "oks"}, "geometry": {"type": "Polygon", "coordinates": [[[37.63062338179998, 55.69269563202548], [37.630617419232685, 55.69286619228055], [37.63008858231099, 55.69286029288356], [37.63009454717919, 55.692689732666], [37.63062338179998, 55.69269563202548]]]}}, {"type": "Feature", "properties": {"id": 115, "object_type": "restriction", "restriction_type": "oks"}, "geometry": {"type": "Polygon", "coordinates": [[[37.63070250528642, 55.69380743105408], [37.630709540910715, 55.6936061702371], [37.630381446789585, 55.693602510761956], [37.63016271741749, 55.693600070624946], [37.63015567898567, 55.693801331396166], [37.63014939601655, 55.69398098789344], [37.63036812751412, 55.69398342806508], [37.63037440948078, 55.69380377155147], [37.63070250528642, 55.69380743105408]]]}}, {"type": "Feature", "properties": {"id": 116, "object_type": "restriction", "restriction_type": "oks"}, "geometry": {"type": "Polygon", "coordinates": [[[37.62976962421416, 55.6938508440001], [37.62976212429961, 55.69406523700393], [37.62919547890414, 55.69405891190597], [37.62920298191783, 55.69384451895269], [37.62976962421416, 55.6938508440001]]]}}, {"type": "Feature", "properties": {"id": 117, "object_type": "restriction", "restriction_type": "oks"}, "geometry": {"type": "Polygon", "coordinates": [[[37.62980859541018, 55.6950246985559], [37.629799260990424, 55.695291528208635], [37.62931862733191, 55.6952861636089], [37.62932796502347, 55.69501933400952], [37.62980859541018, 55.6950246985559]]]}}, {"type": "Feature", "properties": {"id": 118, "object_type": "restriction", "restriction_type": "oks"}, "geometry": {"type": "Polygon", "coordinates": [[[37.630587472524596, 55.69516810349645], [37.630581471291016, 55.69533974934115], [37.630023944713614, 55.695333529882596], [37.63002994838859, 55.695161884077685], [37.630587472524596, 55.69516810349645]]]}}, {"type": "Feature", "properties": {"id": 119, "object_type": "restriction", "restriction_type": "oks"}, "geometry": {"type": "Polygon", "coordinates": [[[37.63293861602651, 55.68684678976301], [37.63292940507368, 55.68711077430106], [37.63221766152855, 55.68710284675288], [37.63222687727327, 55.68683886229281], [37.63293861602651, 55.68684678976301]]]}}, {"type": "Feature", "properties": {"id": 120, "object_type": "restriction", "restriction_type": "oks"}, "geometry": {"type": "Polygon", "coordinates": [[[37.63253046020343, 55.68644343862649], [37.63252343519835, 55.68664471756078], [37.63207597308519, 55.68663973260405], [37.63208300038722, 55.686438453707154], [37.63253046020343, 55.68644343862649]]]}}, {"type": "Feature", "properties": {"id": 121, "object_type": "restriction", "restriction_type": "oks"}, "geometry": {"type": "Polygon", "coordinates": [[[37.631994452980834, 55.68693364344206], [37.63198614193281, 55.687171671802304], [37.63147877517464, 55.687166017173034], [37.63148708930271, 55.68692798886295], [37.631994452980834, 55.68693364344206]]]}}, {"type": "Feature", "properties": {"id": 122, "object_type": "restriction", "restriction_type": "oks"}, "geometry": {"type": "Polygon", "coordinates": [[[37.63223216207389, 55.68812881071923], [37.632225458439194, 55.68832082780331], [37.63169511200027, 55.68831491814237], [37.63170181823229, 55.68812290110057], [37.63223216207389, 55.68812881071923]]]}}, {"type": "Feature", "properties": {"id": 123, "object_type": "restriction", "restriction_type": "oks"}, "geometry": {"type": "Polygon", "coordinates": [[[37.63210194265988, 55.6878245619729], [37.632097184170036, 55.687960851676536], [37.631534240084584, 55.687954578085076], [37.631539000531234, 55.68781828841333], [37.63210194265988, 55.6878245619729]]]}}, {"type": "Feature", "properties": {"id": 124, "object_type": "restriction", "restriction_type": "oks"}, "geometry": {"type": "Polygon", "coordinates": [[[37.63296890320685, 55.689603117746884], [37.6329794201695, 55.68930172233522], [37.632566689740784, 55.68929712606736], [37.63229153618799, 55.68929406111825], [37.63228101393724, 55.689595456443854], [37.63227474170195, 55.68977511322434], [37.632549898630856, 55.6897781782284], [37.63255616960527, 55.6895985214274], [37.63296890320685, 55.689603117746884]]]}}, {"type": "Feature", "properties": {"id": 125, "object_type": "restriction", "restriction_type": "oks"}, "geometry": {"type": "Polygon", "coordinates": [[[37.63283260253778, 55.68886906793835], [37.632822118020194, 55.68916950615589], [37.6321302423174, 55.68916179956956], [37.63214073213677, 55.68886136143829], [37.63283260253778, 55.68886906793835]]]}}, {"type": "Feature", "properties": {"id": 126, "object_type": "restriction", "restriction_type": "oks"}, "geometry": {"type": "Polygon", "coordinates": [[[37.63274335378935, 55.69021704459257], [37.632732439699915, 55.69052975597849], [37.63222716991102, 55.69052412805733], [37.632238088030654, 55.690211416737], [37.63274335378935, 55.69021704459257]]]}}, {"type": "Feature", "properties": {"id": 127, "object_type": "restriction", "restriction_type": "oks"}, "geometry": {"type": "Polygon", "coordinates": [[[37.63200985619768, 55.6900794441658], [37.63200358181807, 55.69025912346045], [37.63159677577138, 55.690254590002915], [37.631603052015414, 55.690074910738616], [37.63200985619768, 55.6900794441658]]]}}, {"type": "Feature", "properties": {"id": 128, "object_type": "restriction", "restriction_type": "oks"}, "geometry": {"type": "Polygon", "coordinates": [[[37.632113895892104, 55.69122889944083], [37.632104707505455, 55.69149203505746], [37.63149043724784, 55.69148518971628], [37.631499629757506, 55.691222054166786], [37.632113895892104, 55.69122889944083]]]}}, {"type": "Feature", "properties": {"id": 129, "object_type": "restriction", "restriction_type": "oks"}, "geometry": {"type": "Polygon", "coordinates": [[[37.632768011589306, 55.691735053955675], [37.63275928909626, 55.69198496228328], [37.63218002971419, 55.69197851031433], [37.63218875589989, 55.69172860204681], [37.632768011589306, 55.691735053955675]]]}}, {"type": "Feature", "properties": {"id": 130, "object_type": "restriction", "restriction_type": "oks"}, "geometry": {"type": "Polygon", "coordinates": [[[37.63276664483888, 55.69295994207148], [37.63277677512188, 55.69266970783201], [37.63242408709707, 55.69266577989736], [37.632188961795656, 55.69266316071163], [37.63217882716063, 55.69295339488027], [37.6321725536683, 55.69313305155421], [37.632407681788116, 55.69313567078581], [37.63241395420285, 55.69295601409435], [37.63276664483888, 55.69295994207148]]]}}, {"type": "Feature", "properties": {"id": 131, "object_type": "restriction", "restriction_type": "oks"}, "geometry": {"type": "Polygon", "coordinates": [[[37.632320640814605, 55.693898635380165], [37.632315884083035, 55.69403486540486], [37.63178872943485, 55.69402899216775], [37.631793487998436, 55.69389276217286], [37.632320640814605, 55.693898635380165]]]}}, {"type": "Feature", "properties": {"id": 132, "object_type": "restriction", "restriction_type": "oks"}, "geometry": {"type": "Polygon", "coordinates": [[[37.632138540971404, 55.69430720969441], [37.6321311652736, 55.69451841351258], [37.631549621409555, 55.69451193334289], [37.631557000240726, 55.694300729575716], [37.632138540971404, 55.69430720969441]]]}}, {"type": "Feature", "properties": {"id": 133, "object_type": "restriction", "restriction_type": "oks"}, "geometry": {"type": "Polygon", "coordinates": [[[37.6323129204898, 55.69561145791253], [37.63232165357831, 55.69536136180671], [37.63195025348572, 55.69535722422113], [37.63170265347775, 55.695354465206826], [37.63169391643973, 55.69560456124836], [37.631687640100935, 55.69578421780787], [37.63193524282358, 55.69578697686636], [37.6319415180275, 55.69560732028837], [37.6323129204898, 55.69561145791253]]]}}, {"type": "Feature", "properties": {"id": 134, "object_type": "restriction", "restriction_type": "tram_tracks"}, "geometry": {"type": "Polygon", "coordinates": [[[37.62061960652344, 55.686041088403236], [37.620276063000674, 55.69579640127895], [37.62018063565423, 55.6957953289181], [37.6205242029195, 55.68604001643221], [37.62061960652344, 55.686041088403236]]]}}, {"type": "Feature", "properties": {"id": 135, "object_type": "restriction", "restriction_type": "gas_pipeline"}, "geometry": {"type": "LineString", "coordinates": [[37.61606820513349, 55.68970123109091], [37.63333794328458, 55.68989468542192]]}}, {"type": "Feature", "properties": {"id": 136, "object_type": "restriction", "restriction_type": "power_cable"}, "geometry": {"type": "LineString", "coordinates": [[37.61598569377929, 55.69203675286304], [37.633256460782675, 55.69223022403323]]}}, {"type": "Feature", "properties": {"id": 137, "object_type": "restriction", "restriction_type": "water"}, "geometry": {"type": "Polygon", "coordinates": [[[37.61578569890076, 55.684189408107756], [37.61531395232252, 55.697537810637435], [37.61388248216487, 55.69752165927248], [37.614354716048254, 55.684173264775616], [37.61578569890076, 55.684189408107756]]]}}, {"type": "Feature", "properties": {"id": 138, "object_type": "restriction", "restriction_type": "railway"}, "geometry": {"type": "Polygon", "coordinates": [[[37.63667250801218, 55.685501498558544], [37.63666000565727, 55.68586081301182], [37.61303185877258, 55.685596144925505], [37.61304457763886, 55.68523683401608], [37.63667250801218, 55.685501498558544]]]}}, {"type": "Feature", "properties": {"id": 139, "object_type": "source", "name": "ТЭЦ синт."}, "geometry": {"type": "Point", "coordinates": [37.63086560249502, 55.69645411928481]}}, {"type": "Feature", "properties": {"id": 140, "object_type": "heat_network", "diameter": 500}, "geometry": {"type": "LineString", "coordinates": [[37.63086560249502, 55.69645411928481], [37.63088664110713, 55.69585227006027]]}}, {"type": "Feature", "properties": {"id": 141, "object_type": "heat_chamber"}, "geometry": {"type": "Point", "coordinates": [37.63088664110713, 55.69585227006027]}}, {"type": "Feature", "properties": {"id": 142, "object_type": "heat_network", "diameter": 500}, "geometry": {"type": "LineString", "coordinates": [[37.63088664110713, 55.69585227006027], [37.63092871593977, 55.69464857141724]]}}, {"type": "Feature", "properties": {"id": 143, "object_type": "heat_network", "diameter": 500}, "geometry": {"type": "LineString", "coordinates": [[37.63092871593977, 55.69464857141724], [37.6309707875839, 55.69344487251557]]}}, {"type": "Feature", "properties": {"id": 144, "object_type": "heat_chamber"}, "geometry": {"type": "Point", "coordinates": [37.6309707875839, 55.69344487251557]}}, {"type": "Feature", "properties": {"id": 145, "object_type": "heat_network", "diameter": 500}, "geometry": {"type": "LineString", "coordinates": [[37.6309707875839, 55.69344487251557], [37.63101285603985, 55.692241173355235]]}}, {"type": "Feature", "properties": {"id": 146, "object_type": "heat_network", "diameter": 400}, "geometry": {"type": "LineString", "coordinates": [[37.63101285603985, 55.692241173355235], [37.631054921307964, 55.6910374739363]]}}, {"type": "Feature", "properties": {"id": 147, "object_type": "heat_chamber"}, "geometry": {"type": "Point", "coordinates": [37.631054921307964, 55.6910374739363]}}, {"type": "Feature", "properties": {"id": 148, "object_type": "heat_network", "diameter": 400}, "geometry": {"type": "LineString", "coordinates": [[37.631054921307964, 55.6910374739363], [37.63109698338856, 55.689833774258716]]}}, {"type": "Feature", "properties": {"id": 149, "object_type": "heat_network", "diameter": 400}, "geometry": {"type": "LineString", "coordinates": [[37.63109698338856, 55.689833774258716], [37.63113904228197, 55.688630074322475]]}}, {"type": "Feature", "properties": {"id": 150, "object_type": "heat_chamber"}, "geometry": {"type": "Point", "coordinates": [37.63113904228197, 55.688630074322475]}}, {"type": "Feature", "properties": {"id": 151, "object_type": "heat_network", "diameter": 400}, "geometry": {"type": "LineString", "coordinates": [[37.63113904228197, 55.688630074322475], [37.63118109798854, 55.687426374127604]]}}, {"type": "Feature", "properties": {"id": 152, "object_type": "heat_network", "diameter": 400}, "geometry": {"type": "LineString", "coordinates": [[37.63118109798854, 55.687426374127604], [37.63122315050858, 55.686222673674074]]}}, {"type": "Feature", "properties": {"id": 153, "object_type": "heat_chamber"}, "geometry": {"type": "Point", "coordinates": [37.63122315050858, 55.686222673674074]}}, {"type": "Feature", "properties": {"id": 154, "object_type": "heat_network", "diameter": 300}, "geometry": {"type": "LineString", "coordinates": [[37.631054921307964, 55.6910374739363], [37.62466205095952, 55.69096602702726]]}}, {"type": "Feature", "properties": {"id": 155, "object_type": "heat_chamber"}, "geometry": {"type": "Point", "coordinates": [37.62466205095952, 55.69096602702726]}}, {"type": "Feature", "properties": {"id": 156, "object_type": "oks_connection_point", "flow_tph": 64.87}, "geometry": {"type": "Point", "coordinates": [37.631803316445, 55.690167017261096]}}, {"type": "Feature", "properties": {"id": 157, "object_type": "oks_connection_point", "flow_tph": 40.25}, "geometry": {"type": "Point", "coordinates": [37.62576173317181, 55.6949753304322]}}, {"type": "Feature", "properties": {"id": 158, "object_type": "oks_connection_point", "flow_tph": 14.14}, "geometry": {"type": "Point", "coordinates": [37.62300502809242, 55.69407841142637]}}, {"type": "Feature", "properties": {"id": 159, "object_type": "oks_connection_point", "flow_tph": 14.42}, "geometry": {"type": "Point", "coordinates": [37.628180678280614, 55.69297599831494]}}, {"type": "Feature", "properties": {"id": 160, "object_type": "oks_connection_point", "flow_tph": 79.62}, "geometry": {"type": "Point", "coordinates": [37.628018910915536, 55.694840759317636]}}, {"type": "Feature", "properties": {"id": 161, "object_type": "oks_connection_point", "flow_tph": 65.68}, "geometry": {"type": "Point", "coordinates": [37.62841281790271, 55.69164762182025]}}, {"type": "Feature", "properties": {"id": 162, "object_type": "oks_connection_point", "flow_tph": 31.32}, "geometry": {"type": "Point", "coordinates": [37.62330483711146, 55.68701875144503]}}, {"type": "Feature", "properties": {"id": 163, "object_type": "oks_connection_point", "flow_tph": 12.79}, "geometry": {"type": "Point", "coordinates": [37.62597355904056, 55.68669468198804]}}, {"type": "Feature", "properties": {"id": 164, "object_type": "oks_connection_point", "flow_tph": 63.53}, "geometry": {"type": "Point", "coordinates": [37.6216840726741, 55.69484711409297]}}, {"type": "Feature", "properties": {"id": 165, "object_type": "oks_connection_point", "flow_tph": 76.12}, "geometry": {"type": "Point", "coordinates": [37.61883607018555, 55.689429344830224]}}, {"type": "Feature", "properties": {"id": 166, "object_type": "oks_connection_point", "flow_tph": 34.79}, "geometry": {"type": "Point", "coordinates": [37.62595732442352, 55.69266723341475]}}, {"type": "Feature", "properties": {"id": 167, "object_type": "oks_connection_point", "flow_tph": 75.31}, "geometry": {"type": "Point", "coordinates": [37.625414857547625, 55.68706296473876]}}, {"type": "Feature", "properties": {"id": 168, "object_type": "oks_connection_point", "flow_tph": 25.12}, "geometry": {"type": "Point", "coordinates": [37.62730187129112, 55.69306068322302]}}, {"type": "Feature", "properties": {"id": 169, "object_type": "oks_connection_point", "flow_tph": 35.4}, "geometry": {"type": "Point", "coordinates": [37.61907468510058, 55.69040620914319]}}, {"type": "Feature", "properties": {"id": 170, "object_type": "oks_connection_point", "flow_tph": 24.07}, "geometry": {"type": "Point", "coordinates": [37.628039555796796, 55.68886108470911]}}, {"type": "Feature", "properties": {"id": 171, "object_type": "oks_connection_point", "flow_tph": 28.86}, "geometry": {"type": "Point", "coordinates": [37.61974277968194, 55.69148312899555]}}, {"type": "Feature", "properties": {"id": 172, "object_type": "oks_connection_point", "flow_tph": 73.38}, "geometry": {"type": "Point", "coordinates": [37.62176243770292, 55.691793275899954]}}, {"type": "Feature", "properties": {"id": 173, "object_type": "oks_connection_point", "flow_tph": 19.59}, "geometry": {"type": "Point", "coordinates": [37.62770458570593, 55.695233981116196]}}, {"type": "Feature", "properties": {"id": 174, "object_type": "oks_connection_point", "flow_tph": 66.88}, "geometry": {"type": "Point", "coordinates": [37.61761989707991, 55.6879450498171]}}, {"type": "Feature", "properties": {"id": 175, "object_type": "oks_connection_point", "flow_tph": 76.1}, "geometry": {"type": "Point", "coordinates": [37.62392088637103, 55.695540536513214]}}, {"type": "Feature", "properties": {"id": 176, "object_type": "oks_connection_point", "flow_tph": 33.95}, "geometry": {"type": "Point", "coordinates": [37.63022192608983, 55.68941334036135]}}, {"type": "Feature", "properties": {"id": 177, "object_type": "oks_connection_point", "flow_tph": 35.73}, "geometry": {"type": "Point", "coordinates": [37.62800493353609, 55.69020456244687]}}, {"type": "Feature", "properties": {"id": 178, "object_type": "oks_connection_point", "flow_tph": 7.96}, "geometry": {"type": "Point", "coordinates": [37.61734337883963, 55.690456582625444]}}, {"type": "Feature", "properties": {"id": 179, "object_type": "oks_connection_point", "flow_tph": 18.87}, "geometry": {"type": "Point", "coordinates": [37.6233735060533, 55.69169560552807]}}, {"type": "Feature", "properties": {"id": 180, "object_type": "oks_connection_point", "flow_tph": 14.52}, "geometry": {"type": "Point", "coordinates": [37.62397515003259, 55.694212789804055]}}, {"type": "Feature", "properties": {"id": 181, "object_type": "oks_connection_point", "flow_tph": 59.22}, "geometry": {"type": "Point", "coordinates": [37.623230417518386, 55.693743507877144]}}, {"type": "Feature", "properties": {"id": 182, "object_type": "oks_connection_point", "flow_tph": 10.95}, "geometry": {"type": "Point", "coordinates": [37.62097233571145, 55.69401923192793]}}, {"type": "Feature", "properties": {"id": 183, "object_type": "oks_connection_point", "flow_tph": 14.99}, "geometry": {"type": "Point", "coordinates": [37.61672149963493, 55.68797746379646]}}, {"type": "Feature", "properties": {"id": 184, "object_type": "oks_connection_point", "flow_tph": 62.65}, "geometry": {"type": "Point", "coordinates": [37.61686953250486, 55.69515883358534]}}, {"type": "Feature", "properties": {"id": 185, "object_type": "oks_connection_point", "flow_tph": 10.62}, "geometry": {"type": "Point", "coordinates": [37.62988259745063, 55.68688688192954]}}, {"type": "Feature", "properties": {"id": 186, "object_type": "oks_connection_point", "flow_tph": 53.02}, "geometry": {"type": "Point", "coordinates": [37.61728927888286, 55.686776358455575]}}, {"type": "Feature", "properties": {"id": 187, "object_type": "oks_connection_point", "flow_tph": 17.43}, "geometry": {"type": "Point", "coordinates": [37.62394002655617, 55.6926774907529]}}, {"type": "Feature", "properties": {"id": 188, "object_type": "oks_connection_point", "flow_tph": 3.23}, "geometry": {"type": "Point", "coordinates": [37.62113049874971, 55.693112199087516]}}, {"type": "Feature", "properties": {"id": 189, "object_type": "oks_connection_point", "flow_tph": 35.93}, "geometry": {"type": "Point", "coordinates": [37.62545660627985, 55.68769975899968]}}, {"type": "Feature", "properties": {"id": 190, "object_type": "oks_connection_point", "flow_tph": 76.52}, "geometry": {"type": "Point", "coordinates": [37.6280516150758, 55.694317877643684]}}, {"type": "Feature", "properties": {"id": 191, "object_type": "oks_connection_point", "flow_tph": 6.92}, "geometry": {"type": "Point", "coordinates": [37.62954516098517, 55.69005071704322]}}, {"type": "Feature", "properties": {"id": 192, "object_type": "oks_connection_point", "flow_tph": 19.81}, "geometry": {"type": "Point", "coordinates": [37.6258629959468, 55.68909598651356]}}, {"type": "Feature", "properties": {"id": 193, "object_type": "oks_connection_point", "flow_tph": 35.48}, "geometry": {"type": "Point", "coordinates": [37.623716488103426, 55.68881237392903]}}, {"type": "Feature", "properties": {"id": 194, "object_type": "oks_connection_point", "flow_tph": 6.62}, "geometry": {"type": "Point", "coordinates": [37.62765229979983, 55.693724049844164]}}, {"type": "Feature", "properties": {"id": 195, "object_type": "oks_connection_point", "flow_tph": 53.17}, "geometry": {"type": "Point", "coordinates": [37.62531097766863, 55.68829200338145]}}]}