{"type":"FeatureCollection","features":[{"type":"Feature","properties":{"id":"source","object_type":"source"},"geometry":{"type":"Point","coordinates":[38.998432602,55.0]}},{"type":"Feature","properties":{"id":"existing","object_type":"heat_network","diameter":300},"geometry":{"type":"LineString","coordinates":[[38.998432602,55.0],[39.001567398,55.0]]}},{"type":"Feature","properties":{"id":"chamber","object_type":"heat_chamber"},"geometry":{"type":"Point","coordinates":[39.0,55.0]}},{"type":"Feature","properties":{"id":42,"object_type":"oks_connection_point","flow_tph":20},"geometry":{"type":"Point","coordinates":[39.0,55.001617251]}},{"type":"Feature","properties":{"id":"road","object_type":"restriction","restriction_type":"road"},"geometry":{"type":"Polygon","coordinates":[[[38.999059561,55.000314465],[39.000940439,55.000314465],[39.000940439,55.000404313],[38.999059561,55.000404313],[38.999059561,55.000314465]]]}},{"type":"Feature","properties":{"id":"tram_tracks","object_type":"restriction","restriction_type":"tram_tracks"},"geometry":{"type":"Polygon","coordinates":[[[38.999059561,55.000628931],[39.000940439,55.000628931],[39.000940439,55.000718778],[38.999059561,55.000718778],[38.999059561,55.000628931]]]}},{"type":"Feature","properties":{"id":"gas_pipeline","object_type":"restriction","restriction_type":"gas_pipeline"},"geometry":{"type":"LineString","coordinates":[[38.999059561,55.000943396],[39.000940439,55.000943396]]}},{"type":"Feature","properties":{"id":"power_cable","object_type":"restriction","restriction_type":"power_cable"},"geometry":{"type":"LineString","coordinates":[[38.999059561,55.001257862],[39.000940439,55.001257862]]}},{"type":"Feature","properties":{"id":"park","object_type":"restriction","restriction_type":"park"},"geometry":{"type":"Polygon","coordinates":[[[39.00031348,55.001347709],[39.001097179,55.001347709],[39.001097179,55.001796945],[39.00031348,55.001796945],[39.00031348,55.001347709]]]}},{"type":"Feature","properties":{"id":"own","object_type":"restriction","restriction_type":"oks"},"geometry":{"type":"Polygon","coordinates":[[[38.999874608,55.001572327],[39.000125392,55.001572327],[39.000125392,55.001707098],[38.999874608,55.001707098],[38.999874608,55.001572327]]]}}],"padding":""}