{"type":"FeatureCollection","features":[{"type":"Feature","properties":{"id":"source","object_type":"source"},"geometry":{"type":"Point","coordinates":[38.998432602,55.0]}},{"type":"Feature","properties":{"id":"existing","object_type":"heat_network","diameter":300},"geometry":{"type":"LineString","coordinates":[[38.998432602,55.0],[39.001567398,55.0]]}},{"type":"Feature","properties":{"id":"chamber","object_type":"heat_chamber"},"geometry":{"type":"Point","coordinates":[39.0,55.0]}},{"type":"Feature","properties":{"id":42,"object_type":"oks_connection_point","flow_tph":20},"geometry":{"type":"Point","coordinates":[39.0,55.001617251]}},{"type":"Feature","properties":{"id":"water","object_type":"restriction","restriction_type":"water"},"geometry":{"type":"Polygon","coordinates":[[[38.99968652,55.001437556],[39.00031348,55.001437556],[39.00031348,55.001796945],[38.99968652,55.001796945],[38.99968652,55.001437556]]]}}],"padding":""}