{"type":"FeatureCollection","features":[{"type":"Feature","properties":{"id":"source","object_type":"source"},"geometry":{"type":"Point","coordinates":[39,55]}},{"type":"Feature","properties":{"id":"old","object_type":"heat_network","diameter":300},"geometry":{"type":"LineString","coordinates":[[39,55],[39.001,55]]}},{"type":"Feature","properties":{"id":"target","object_type":"oks_connection_point","flow_tph":20},"geometry":{"type":"Point","coordinates":[39,55.001]}},{"type":"Feature","properties":{"id":"bowtie","object_type":"restriction","restriction_type":"park"},"geometry":{"type":"Polygon","coordinates":[[[39,55],[39.01,55.01],[39,55.01],[39.01,55],[39,55]]]}}]}
