{"type":"FeatureCollection","features":[{"type":"Feature","geometry":{"type":"LineString","coordinates":[[37.639697263,55.698850788],[37.640426213,55.698614133],[37.640764466,55.698407392]]},"properties":{"id":"p20_net_1","object_type":"heat_network","variant_id":"p20","start_node_id":"p20_chamber_1","end_node_id":16,"flow_tph":76.27,"diameter":200,"length":84.18,"laying_method":"base","depth_start":3.0,"depth_end":3.0,"cost":1.012492119E7,"k_special":1.0,"k_depth":1.0,"crossed":null,"serves_oks":[16],"turns":1,"approach":"вход не через ближайшую границу: трасса через неё 195 м против 84 м — необоснованный обход (§2.1)"}},{"type":"Feature","geometry":{"type":"LineString","coordinates":[[37.633568221,55.698830617],[37.633560073,55.699538998]]},"properties":{"id":"p20_net_2","object_type":"heat_network","variant_id":"p20","start_node_id":"p20_chamber_3","end_node_id":"p20_chamber_2","flow_tph":158.85,"diameter":250,"length":78.85,"laying_method":"base","depth_start":3.0,"depth_end":3.0,"cost":1.06696512E7,"k_special":1.0,"k_depth":1.0,"crossed":null,"serves_oks":[11,1,4,2,8,6,3],"turns":0}},{"type":"Feature","geometry":{"type":"LineString","coordinates":[[37.633568221,55.698830617],[37.633250352,55.698629192],[37.633139322,55.698653068]]},"properties":{"id":"p20_net_3","object_type":"heat_network","variant_id":"p20","start_node_id":"p20_chamber_3","end_node_id":12,"flow_tph":40.0,"diameter":125,"length":37.5,"laying_method":"base","depth_start":3.0,"depth_end":3.0,"cost":3647662.93,"k_special":1.0,"k_depth":1.0,"crossed":null,"serves_oks":[12],"turns":1}},{"type":"Feature","geometry":{"type":"LineString","coordinates":[[37.633848349,55.697644438],[37.633901056,55.697722607]]},"properties":{"id":"p20_net_4","object_type":"heat_network","variant_id":"p20","start_node_id":"p20_chamber_4","end_node_id":13,"flow_tph":19.77,"diameter":100,"length":9.31,"laying_method":"base","depth_start":3.0,"depth_end":3.0,"cost":835545.66,"k_special":1.0,"k_depth":1.0,"crossed":null,"serves_oks":[13],"turns":0}},{"type":"Feature","geometry":{"type":"LineString","coordinates":[[37.633848349,55.697644438],[37.633786492,55.697522731],[37.633752441,55.697472329]]},"properties":{"id":"p20_net_5","object_type":"heat_network","variant_id":"p20","start_node_id":"p20_chamber_4","end_node_id":14,"flow_tph":19.73,"diameter":100,"length":20.1,"laying_method":"base","depth_start":3.0,"depth_end":3.0,"cost":1803707.4,"k_special":1.0,"k_depth":1.0,"crossed":null,"serves_oks":[14],"turns":1}},{"type":"Feature","geometry":{"type":"LineString","coordinates":[[37.638039705,55.697063075],[37.639474382,55.696756702],[37.639538146,55.696851829]]},"properties":{"id":"p20_net_6","object_type":"heat_network","variant_id":"p20","start_node_id":"p20_chamber_5","end_node_id":17,"flow_tph":20.63,"diameter":100,"length":107.74,"laying_method":"base","depth_start":3.0,"depth_end":3.0,"cost":9669209.8,"k_special":1.0,"k_depth":1.0,"crossed":null,"serves_oks":[17],"turns":1}},{"type":"Feature","geometry":{"type":"LineString","coordinates":[[37.632384736,55.700241091],[37.632335607,55.700285759],[37.632202634,55.700314417]]},"properties":{"id":"p20_net_7","object_type":"heat_network","variant_id":"p20","start_node_id":"p20_chamber_6","end_node_id":8,"flow_tph":18.03,"diameter":100,"length":14.8,"laying_method":"base","depth_start":3.0,"depth_end":3.0,"cost":1328155.51,"k_special":1.0,"k_depth":1.0,"crossed":null,"serves_oks":[8],"turns":1}},{"type":"Feature","geometry":{"type":"LineString","coordinates":[[37.632384736,55.700241091],[37.632060759,55.700119529],[37.632012226,55.700048261]]},"properties":{"id":"p20_net_8","object_type":"heat_network","variant_id":"p20","start_node_id":"p20_chamber_6","end_node_id":6,"flow_tph":15.99,"diameter":100,"length":32.95,"laying_method":"base","depth_start":3.0,"depth_end":3.0,"cost":2956961.92,"k_special":1.0,"k_depth":1.0,"crossed":null,"serves_oks":[6],"turns":1}},{"type":"Feature","geometry":{"type":"LineString","coordinates":[[37.638524510,55.697730987],[37.638426101,55.697821147],[37.638280304,55.697956786]]},"properties":{"id":"p20_net_9","object_type":"heat_network","variant_id":"p20","start_node_id":"p20_chamber_7","end_node_id":7,"flow_tph":27.82,"diameter":125,"length":29.45,"laying_method":"base","depth_start":3.0,"depth_end":3.0,"cost":2864680.01,"k_special":1.0,"k_depth":1.0,"crossed":null,"serves_oks":[7],"turns":0,"approach":"вход не через ближайшую границу: трасса через неё 69 м против 29 м — необоснованный обход (§2.1)"}},{"type":"Feature","geometry":{"type":"LineString","coordinates":[[37.633560073,55.699538998],[37.633455450,55.699513880],[37.633204499,55.699575075]]},"properties":{"id":"p20_net_10","object_type":"heat_network","variant_id":"p20","start_node_id":"p20_chamber_2","end_node_id":11,"flow_tph":4.08,"diameter":65,"length":24.33,"laying_method":"base","depth_start":3.0,"depth_end":3.0,"cost":1912891.53,"k_special":1.0,"k_depth":1.0,"crossed":null,"serves_oks":[11],"turns":1,"approach":"вход не через ближайшую границу: трасса через неё 64 м против 24 м — необоснованный обход (§2.1)"}},{"type":"Feature","geometry":{"type":"LineString","coordinates":[[37.633848349,55.697644438],[37.632889099,55.697708852],[37.632095837,55.696951365],[37.631988430,55.696977049],[37.632034439,55.697045690]]},"properties":{"id":"p20_net_11","object_type":"heat_network","variant_id":"p20","start_node_id":"p20_chamber_4","end_node_id":15,"flow_tph":31.89,"diameter":125,"length":174.18,"laying_method":"base","depth_start":3.0,"depth_end":3.0,"cost":1.694292927E7,"k_special":1.0,"k_depth":1.0,"crossed":null,"serves_oks":[15],"turns":3}},{"type":"Feature","geometry":{"type":"LineString","coordinates":[[37.632902729,55.700071552],[37.632480085,55.700175883],[37.632384736,55.700241091]]},"properties":{"id":"p20_net_12","object_type":"heat_network","variant_id":"p20","start_node_id":"p20_chamber_8","end_node_id":"p20_chamber_6","flow_tph":34.02,"diameter":125,"length":38.4,"laying_method":"base","depth_start":3.0,"depth_end":3.0,"cost":3735842.91,"k_special":1.0,"k_depth":1.0,"crossed":null,"serves_oks":[8,6],"turns":1}},{"type":"Feature","geometry":{"type":"LineString","coordinates":[[37.632902729,55.700071552],[37.632882085,55.700097735],[37.632846602,55.700275760]]},"properties":{"id":"p20_net_13","object_type":"heat_network","variant_id":"p20","start_node_id":"p20_chamber_8","end_node_id":3,"flow_tph":29.42,"diameter":125,"length":23.13,"laying_method":"base","depth_start":3.0,"depth_end":3.0,"cost":2249942.89,"k_special":1.0,"k_depth":1.0,"crossed":null,"serves_oks":[3],"turns":1,"approach":"вход не через ближайшую границу: от неё нет допустимого маршрута (тупик/двор, отступы), взята ближайшая достижимая точка входа"}},{"type":"Feature","geometry":{"type":"LineString","coordinates":[[37.634486113,55.699600781],[37.634405404,55.699481064]]},"properties":{"id":"p20_net_14","object_type":"heat_network","variant_id":"p20","start_node_id":"p20_chamber_9","end_node_id":1,"flow_tph":24.87,"diameter":125,"length":14.26,"laying_method":"base","depth_start":3.0,"depth_end":3.0,"cost":1386920.65,"k_special":1.0,"k_depth":1.0,"crossed":null,"serves_oks":[1],"turns":0}},{"type":"Feature","geometry":{"type":"LineString","coordinates":[[37.634486113,55.699600781],[37.635302695,55.699567008],[37.636262443,55.700285769],[37.636441493,55.700243641],[37.636381851,55.700155199]]},"properties":{"id":"p20_net_15","object_type":"heat_network","variant_id":"p20","start_node_id":"p20_chamber_9","end_node_id":4,"flow_tph":47.7,"diameter":150,"length":174.39,"laying_method":"base","depth_start":3.0,"depth_end":3.0,"cost":1.839889914E7,"k_special":1.0,"k_depth":1.0,"crossed":null,"serves_oks":[4],"turns":3}},{"type":"Feature","geometry":{"type":"LineString","coordinates":[[37.633560073,55.699538998],[37.634183051,55.699660314],[37.634486113,55.699600781]]},"properties":{"id":"p20_net_16","object_type":"heat_network","variant_id":"p20","start_node_id":"p20_chamber_2","end_node_id":"p20_chamber_9","flow_tph":91.33,"diameter":200,"length":61.59,"laying_method":"base","depth_start":3.0,"depth_end":3.0,"cost":7407698.07,"k_special":1.0,"k_depth":1.0,"crossed":null,"serves_oks":[1,4,2],"turns":1}},{"type":"Feature","geometry":{"type":"LineString","coordinates":[[37.634486113,55.699600781],[37.634545935,55.699720348],[37.634582926,55.699854464]]},"properties":{"id":"p20_net_17","object_type":"heat_network","variant_id":"p20","start_node_id":"p20_chamber_9","end_node_id":2,"flow_tph":18.76,"diameter":100,"length":28.94,"laying_method":"base","depth_start":3.0,"depth_end":3.0,"cost":2596985.19,"k_special":1.0,"k_depth":1.0,"crossed":null,"serves_oks":[2],"turns":1,"approach":"вход не через ближайшую границу: трасса через неё 142 м против 29 м — необоснованный обход (§2.1)"}},{"type":"Feature","geometry":{"type":"LineString","coordinates":[[37.635134005,55.698417122],[37.633568221,55.698830617]]},"properties":{"id":"p20_net_18","object_type":"heat_network","variant_id":"p20","start_node_id":"p20_chamber_10","end_node_id":"p20_chamber_3","flow_tph":198.85,"diameter":250,"length":108.65,"laying_method":"base","depth_start":3.0,"depth_end":3.0,"cost":1.470294697E7,"k_special":1.0,"k_depth":1.0,"crossed":null,"serves_oks":[11,1,4,2,8,6,3,12],"turns":0}},{"type":"Feature","geometry":{"type":"LineString","coordinates":[[37.635134005,55.698417122],[37.635231335,55.698497899],[37.635417056,55.698614732]]},"properties":{"id":"p20_net_19","object_type":"heat_network","variant_id":"p20","start_node_id":"p20_chamber_10","end_node_id":5,"flow_tph":26.09,"diameter":125,"length":28.35,"laying_method":"base","depth_start":3.0,"depth_end":3.0,"cost":2757737.77,"k_special":1.0,"k_depth":1.0,"crossed":null,"serves_oks":[5],"turns":1,"approach":"вход не через ближайшую границу: от неё нет допустимого маршрута (тупик/двор, отступы), взята ближайшая достижимая точка входа"}},{"type":"Feature","geometry":{"type":"LineString","coordinates":[[37.637052387,55.697885025],[37.635134005,55.698417122]]},"properties":{"id":"p20_net_20","object_type":"heat_network","variant_id":"p20","start_node_id":"p20_chamber_11","end_node_id":"p20_chamber_10","flow_tph":330.86,"diameter":300,"length":134.35,"laying_method":"base","depth_start":3.0,"depth_end":3.0,"cost":2.015473077E7,"k_special":1.0,"k_depth":1.0,"crossed":null,"serves_oks":[11,1,4,2,8,6,3,12,5,9,13,14,15],"turns":0}},{"type":"Feature","geometry":{"type":"LineString","coordinates":[[37.637052387,55.697885025],[37.636332063,55.697256533],[37.636093240,55.697296569]]},"properties":{"id":"p20_net_21","object_type":"heat_network","variant_id":"p20","start_node_id":"p20_chamber_11","end_node_id":10,"flow_tph":33.14,"diameter":125,"length":98.99,"laying_method":"base","depth_start":3.0,"depth_end":3.0,"cost":9629028.81,"k_special":1.0,"k_depth":1.0,"crossed":null,"serves_oks":[10],"turns":1,"approach":"вход не через ближайшую границу: от неё нет допустимого маршрута (тупик/двор, отступы), взята ближайшая достижимая точка входа"}},{"type":"Feature","geometry":{"type":"LineString","coordinates":[[37.634347073,55.697525763],[37.634521297,55.697364119],[37.634446268,55.697252392]]},"properties":{"id":"p20_net_22","object_type":"heat_network","variant_id":"p20","start_node_id":"p20_chamber_12","end_node_id":9,"flow_tph":34.53,"diameter":125,"length":34.36,"laying_method":"base","depth_start":3.0,"depth_end":3.0,"cost":3342576.76,"k_special":1.0,"k_depth":1.0,"crossed":null,"serves_oks":[9],"turns":1}},{"type":"Feature","geometry":{"type":"LineString","coordinates":[[37.634347073,55.697525763],[37.633848349,55.697644438]]},"properties":{"id":"p20_net_23","object_type":"heat_network","variant_id":"p20","start_node_id":"p20_chamber_12","end_node_id":"p20_chamber_4","flow_tph":71.39,"diameter":200,"length":34.02,"laying_method":"base","depth_start":3.0,"depth_end":3.0,"cost":4091597.53,"k_special":1.0,"k_depth":1.0,"crossed":null,"serves_oks":[13,14,15],"turns":0}},{"type":"Feature","geometry":{"type":"LineString","coordinates":[[37.633560073,55.699538998],[37.633511151,55.699590261],[37.632902729,55.700071552]]},"properties":{"id":"p20_net_24","object_type":"heat_network","variant_id":"p20","start_node_id":"p20_chamber_2","end_node_id":"p20_chamber_8","flow_tph":63.44,"diameter":150,"length":72.3,"laying_method":"base","depth_start":3.0,"depth_end":3.0,"cost":7628198.69,"k_special":1.0,"k_depth":1.0,"crossed":null,"serves_oks":[8,6,3],"turns":1}},{"type":"Feature","geometry":{"type":"LineString","coordinates":[[37.638524510,55.697730987],[37.637052387,55.697885025]]},"properties":{"id":"p20_net_25","object_type":"heat_network","variant_id":"p20","start_node_id":"p20_chamber_7","end_node_id":"p20_chamber_11","flow_tph":364.0,"diameter":300,"length":94.11,"laying_method":"base","depth_start":3.0,"depth_end":3.0,"cost":1.411878069E7,"k_special":1.0,"k_depth":1.0,"crossed":null,"serves_oks":[11,1,4,2,8,6,3,12,5,9,13,14,15,10],"turns":0}},{"type":"Feature","geometry":{"type":"LineString","coordinates":[[37.635134005,55.698417122],[37.634920746,55.698348643],[37.634662879,55.697997642],[37.634347073,55.697525763]]},"properties":{"id":"p20_net_26","object_type":"heat_network","variant_id":"p20","start_node_id":"p20_chamber_10","end_node_id":"p20_chamber_12","flow_tph":105.92,"diameter":200,"length":113.86,"laying_method":"base","depth_start":3.0,"depth_end":3.0,"cost":1.369500877E7,"k_special":1.0,"k_depth":1.0,"crossed":null,"serves_oks":[9,13,14,15],"turns":2}},{"type":"Feature","geometry":{"type":"Point","coordinates":[37.639697263,55.698850788]},"properties":{"id":"p20_chamber_1","object_type":"heat_chamber","variant_id":"p20","diameter":400,"cost":5000000.0,"tie_in_pipe_id":124,"reason":"врезка в существующий участок 124: существующей камеры с запасом примыканий ближе 10 м нет (§2.4); ветвей: 1","connections":3}},{"type":"Feature","geometry":{"type":"Point","coordinates":[37.633560073,55.699538998]},"properties":{"id":"p20_chamber_2","object_type":"heat_chamber","variant_id":"p20","diameter":250,"cost":5000000.0,"tie_in_pipe_id":null,"reason":"разветвление (§2.1: только в тепловой камере): ДУ65 → точки [11]; ДУ200 → точки [1, 4, 2]; ДУ150 → точки [8, 6, 3]","connections":4}},{"type":"Feature","geometry":{"type":"Point","coordinates":[37.633568221,55.698830617]},"properties":{"id":"p20_chamber_3","object_type":"heat_chamber","variant_id":"p20","diameter":250,"cost":5000000.0,"tie_in_pipe_id":null,"reason":"разветвление (§2.1: только в тепловой камере): ДУ250 → точки [11, 1, 4, 2, 8, 6, 3]; ДУ125 → точки [12]","connections":3}},{"type":"Feature","geometry":{"type":"Point","coordinates":[37.633848349,55.697644438]},"properties":{"id":"p20_chamber_4","object_type":"heat_chamber","variant_id":"p20","diameter":200,"cost":3000000.0,"tie_in_pipe_id":null,"reason":"разветвление (§2.1: только в тепловой камере): ДУ100 → точки [13]; ДУ100 → точки [14]; ДУ125 → точки [15]","connections":4}},{"type":"Feature","geometry":{"type":"Point","coordinates":[37.638039705,55.697063075]},"properties":{"id":"p20_chamber_5","object_type":"heat_chamber","variant_id":"p20","diameter":400,"cost":5000000.0,"tie_in_pipe_id":129,"reason":"врезка в существующий участок 129: существующей камеры с запасом примыканий ближе 10 м нет (§2.4); ветвей: 1","connections":3}},{"type":"Feature","geometry":{"type":"Point","coordinates":[37.632384736,55.700241091]},"properties":{"id":"p20_chamber_6","object_type":"heat_chamber","variant_id":"p20","diameter":125,"cost":3000000.0,"tie_in_pipe_id":null,"reason":"разветвление (§2.1: только в тепловой камере): ДУ100 → точки [8]; ДУ100 → точки [6]","connections":3}},{"type":"Feature","geometry":{"type":"Point","coordinates":[37.638524510,55.697730987]},"properties":{"id":"p20_chamber_7","object_type":"heat_chamber","variant_id":"p20","diameter":400,"cost":5000000.0,"tie_in_pipe_id":126,"reason":"врезка в существующий участок 126: существующей камеры с запасом примыканий ближе 10 м нет (§2.4); ветвей: 2","connections":4}},{"type":"Feature","geometry":{"type":"Point","coordinates":[37.632902729,55.700071552]},"properties":{"id":"p20_chamber_8","object_type":"heat_chamber","variant_id":"p20","diameter":150,"cost":3000000.0,"tie_in_pipe_id":null,"reason":"разветвление (§2.1: только в тепловой камере): ДУ125 → точки [8, 6]; ДУ125 → точки [3]","connections":3}},{"type":"Feature","geometry":{"type":"Point","coordinates":[37.634486113,55.699600781]},"properties":{"id":"p20_chamber_9","object_type":"heat_chamber","variant_id":"p20","diameter":200,"cost":3000000.0,"tie_in_pipe_id":null,"reason":"разветвление (§2.1: только в тепловой камере): ДУ125 → точки [1]; ДУ150 → точки [4]; ДУ100 → точки [2]","connections":4}},{"type":"Feature","geometry":{"type":"Point","coordinates":[37.635134005,55.698417122]},"properties":{"id":"p20_chamber_10","object_type":"heat_chamber","variant_id":"p20","diameter":300,"cost":5000000.0,"tie_in_pipe_id":null,"reason":"разветвление (§2.1: только в тепловой камере): ДУ250 → точки [11, 1, 4, 2, 8, 6, 3, 12]; ДУ125 → точки [5]; ДУ200 → точки [9, 13, 14, 15]","connections":4}},{"type":"Feature","geometry":{"type":"Point","coordinates":[37.637052387,55.697885025]},"properties":{"id":"p20_chamber_11","object_type":"heat_chamber","variant_id":"p20","diameter":300,"cost":5000000.0,"tie_in_pipe_id":null,"reason":"разветвление (§2.1: только в тепловой камере): ДУ300 → точки [11, 1, 4, 2, 8, 6, 3, 12, 5, 9, 13, 14, 15]; ДУ125 → точки [10]","connections":3}},{"type":"Feature","geometry":{"type":"Point","coordinates":[37.634347073,55.697525763]},"properties":{"id":"p20_chamber_12","object_type":"heat_chamber","variant_id":"p20","diameter":200,"cost":3000000.0,"tie_in_pipe_id":null,"reason":"разветвление (§2.1: только в тепловой камере): ДУ125 → точки [9]; ДУ200 → точки [13, 14, 15]","connections":3}},{"type":"Feature","geometry":null,"properties":{"id":"p20_summary","object_type":"variant_summary","variant_id":"p20","rank":1,"construction_cost":2.3865321203E8,"chamber_construction_cost":5.0E7,"existing_chamber_tie_in_count":0,"existing_chamber_tie_in_cost":0.0,"unconnected_penalty":0.0,"calculated_cost":2.3865321203E8,"new_network_length":1673.09,"score":11.7016,"unconnected_oks_ids":[],"engine_version":"1.0.0","description":"Присоединение к существующей сети: новая камера на участке 124, новая камера на участке 129, новая камера на участке 126; камер-разветвлений: 9; точки объединены в общие магистрали","explanation":"Магистраль до ДУ300; присоединений к существующей сети: 3 — новая камера на участке 124 (76 т/ч), новая камера на участке 129 (21 т/ч), новая камера на участке 126 (392 т/ч); врезок в существующие камеры: 0; камер-разветвлений: 9; спецпроходов: 0; поворотов: 23; самая длинная трасса 651.93 м до точки 4.","cost_breakdown":{"pipes_by_diameter":{"DN65":{"length_m":24.33,"cost":1912891.53},"DN100":{"length_m":213.83,"cost":1.919056548E7},"DN125":{"length_m":478.62,"cost":4.6557322E7},"DN150":{"length_m":246.69,"cost":2.602709783E7},"DN200":{"length_m":293.65,"cost":3.531922556E7},"DN250":{"length_m":187.5,"cost":2.537259817E7},"DN300":{"length_m":228.46,"cost":3.427351146E7}},"special_sections":{},"special_extra_cost":0.0,"new_chambers_cost":5.0E7,"existing_chamber_tie_ins":0,"tie_in_cost":0.0,"unconnected_penalty":0.0},"route_metrics":{"turns":23,"turns_45_or_90":1,"straight_segments":50,"avg_segment_m":33.46,"min_segment_m":3.19,"special_sections":0,"tie_in_points":3,"branch_chambers":9,"longest_path_m":651.93,"longest_path_to":4},"pareto_optimal":true,"route_overlap_with_better":0.0,"candidates_considered":52,"validation_errors":0,"validation_warnings":18}},{"type":"Feature","geometry":{"type":"LineString","coordinates":[[37.638524510,55.697730987],[37.638217218,55.697863252],[37.638280304,55.697956786]]},"properties":{"id":"p21_net_1","object_type":"heat_network","variant_id":"p21","start_node_id":"p21_chamber_1","end_node_id":7,"flow_tph":27.82,"diameter":125,"length":35.43,"laying_method":"base","depth_start":3.0,"depth_end":3.0,"cost":3446131.64,"k_special":1.0,"k_depth":1.0,"crossed":null,"serves_oks":[7],"turns":1}},{"type":"Feature","geometry":{"type":"LineString","coordinates":[[37.634905458,55.698418092],[37.633651681,55.698656100]]},"properties":{"id":"p21_net_2","object_type":"heat_network","variant_id":"p21","start_node_id":"p21_chamber_3","end_node_id":"p21_chamber_2","flow_tph":198.85,"diameter":250,"length":83.14,"laying_method":"base","depth_start":3.0,"depth_end":3.0,"cost":1.125117776E7,"k_special":1.0,"k_depth":1.0,"crossed":null,"serves_oks":[1,4,2,11,8,6,3,12],"turns":0}},{"type":"Feature","geometry":{"type":"LineString","coordinates":[[37.638039705,55.697063075],[37.639474382,55.696756702],[37.639538146,55.696851829]]},"properties":{"id":"p21_net_3","object_type":"heat_network","variant_id":"p21","start_node_id":"p21_chamber_4","end_node_id":17,"flow_tph":20.63,"diameter":100,"length":107.74,"laying_method":"base","depth_start":3.0,"depth_end":3.0,"cost":9669209.8,"k_special":1.0,"k_depth":1.0,"crossed":null,"serves_oks":[17],"turns":1}},{"type":"Feature","geometry":{"type":"LineString","coordinates":[[37.634905458,55.698418092],[37.634347073,55.697525763]]},"properties":{"id":"p21_net_4","object_type":"heat_network","variant_id":"p21","start_node_id":"p21_chamber_3","end_node_id":"p21_chamber_5","flow_tph":139.06,"diameter":200,"length":105.34,"laying_method":"base","depth_start":3.0,"depth_end":3.0,"cost":1.266948174E7,"k_special":1.0,"k_depth":1.0,"crossed":null,"serves_oks":[13,15,14,9,10],"turns":0}},{"type":"Feature","geometry":{"type":"LineString","coordinates":[[37.633651681,55.698656100],[37.633637461,55.698842223],[37.634188399,55.699684450]]},"properties":{"id":"p21_net_5","object_type":"heat_network","variant_id":"p21","start_node_id":"p21_chamber_2","end_node_id":"p21_chamber_6","flow_tph":158.85,"diameter":250,"length":120.67,"laying_method":"base","depth_start":3.0,"depth_end":3.0,"cost":1.63292451E7,"k_special":1.0,"k_depth":1.0,"crossed":null,"serves_oks":[1,4,2,11,8,6,3],"turns":1}},{"type":"Feature","geometry":{"type":"LineString","coordinates":[[37.634188399,55.699684450],[37.634486113,55.699600781]]},"properties":{"id":"p21_net_6","object_type":"heat_network","variant_id":"p21","start_node_id":"p21_chamber_6","end_node_id":"p21_chamber_7","flow_tph":91.33,"diameter":200,"length":20.9,"laying_method":"base","depth_start":3.0,"depth_end":3.0,"cost":2514028.27,"k_special":1.0,"k_depth":1.0,"crossed":null,"serves_oks":[1,4,2],"turns":0}},{"type":"Feature","geometry":{"type":"LineString","coordinates":[[37.634486113,55.699600781],[37.634405404,55.699481064]]},"properties":{"id":"p21_net_7","object_type":"heat_network","variant_id":"p21","start_node_id":"p21_chamber_7","end_node_id":1,"flow_tph":24.87,"diameter":125,"length":14.26,"laying_method":"base","depth_start":3.0,"depth_end":3.0,"cost":1386920.65,"k_special":1.0,"k_depth":1.0,"crossed":null,"serves_oks":[1],"turns":0}},{"type":"Feature","geometry":{"type":"LineString","coordinates":[[37.634486113,55.699600781],[37.635302695,55.699567008],[37.636262443,55.700285769],[37.636441493,55.700243641],[37.636381851,55.700155199]]},"properties":{"id":"p21_net_8","object_type":"heat_network","variant_id":"p21","start_node_id":"p21_chamber_7","end_node_id":4,"flow_tph":47.7,"diameter":150,"length":174.39,"laying_method":"base","depth_start":3.0,"depth_end":3.0,"cost":1.839889914E7,"k_special":1.0,"k_depth":1.0,"crossed":null,"serves_oks":[4],"turns":3}},{"type":"Feature","geometry":{"type":"LineString","coordinates":[[37.634905458,55.698418092],[37.635185192,55.698508146],[37.635417056,55.698614732]]},"properties":{"id":"p21_net_9","object_type":"heat_network","variant_id":"p21","start_node_id":"p21_chamber_3","end_node_id":5,"flow_tph":26.09,"diameter":125,"length":39.03,"laying_method":"base","depth_start":3.0,"depth_end":3.0,"cost":3796848.75,"k_special":1.0,"k_depth":1.0,"crossed":null,"serves_oks":[5],"turns":1,"approach":"вход не через ближайшую границу: от неё нет допустимого маршрута (тупик/двор, отступы), взята ближайшая достижимая точка входа"}},{"type":"Feature","geometry":{"type":"LineString","coordinates":[[37.639697263,55.698850788],[37.640426213,55.698614133],[37.640764466,55.698407392]]},"properties":{"id":"p21_net_10","object_type":"heat_network","variant_id":"p21","start_node_id":"p21_chamber_8","end_node_id":16,"flow_tph":76.27,"diameter":200,"length":84.18,"laying_method":"base","depth_start":3.0,"depth_end":3.0,"cost":1.012492119E7,"k_special":1.0,"k_depth":1.0,"crossed":null,"serves_oks":[16],"turns":1,"approach":"вход не через ближайшую границу: трасса через неё 195 м против 84 м — необоснованный обход (§2.1)"}},{"type":"Feature","geometry":{"type":"LineString","coordinates":[[37.632412771,55.700243731],[37.632335607,55.700285759],[37.632202634,55.700314417]]},"properties":{"id":"p21_net_11","object_type":"heat_network","variant_id":"p21","start_node_id":"p21_chamber_9","end_node_id":8,"flow_tph":18.03,"diameter":100,"length":15.68,"laying_method":"base","depth_start":3.0,"depth_end":3.0,"cost":1407649.66,"k_special":1.0,"k_depth":1.0,"crossed":null,"serves_oks":[8],"turns":1}},{"type":"Feature","geometry":{"type":"LineString","coordinates":[[37.632412771,55.700243731],[37.632060759,55.700119529],[37.632012226,55.700048261]]},"properties":{"id":"p21_net_12","object_type":"heat_network","variant_id":"p21","start_node_id":"p21_chamber_9","end_node_id":6,"flow_tph":15.99,"diameter":100,"length":34.59,"laying_method":"base","depth_start":3.0,"depth_end":3.0,"cost":3104199.59,"k_special":1.0,"k_depth":1.0,"crossed":null,"serves_oks":[6],"turns":1}},{"type":"Feature","geometry":{"type":"LineString","coordinates":[[37.633651681,55.698656100],[37.633250352,55.698629192],[37.633139322,55.698653068]]},"properties":{"id":"p21_net_13","object_type":"heat_network","variant_id":"p21","start_node_id":"p21_chamber_2","end_node_id":12,"flow_tph":40.0,"diameter":125,"length":32.87,"laying_method":"base","depth_start":3.0,"depth_end":3.0,"cost":3197603.28,"k_special":1.0,"k_depth":1.0,"crossed":null,"serves_oks":[12],"turns":1}},{"type":"Feature","geometry":{"type":"LineString","coordinates":[[37.634347073,55.697525763],[37.633848349,55.697644438]]},"properties":{"id":"p21_net_14","object_type":"heat_network","variant_id":"p21","start_node_id":"p21_chamber_5","end_node_id":"p21_chamber_10","flow_tph":71.39,"diameter":200,"length":34.02,"laying_method":"base","depth_start":3.0,"depth_end":3.0,"cost":4091597.53,"k_special":1.0,"k_depth":1.0,"crossed":null,"serves_oks":[13,15,14],"turns":0}},{"type":"Feature","geometry":{"type":"LineString","coordinates":[[37.633848349,55.697644438],[37.633901056,55.697722607]]},"properties":{"id":"p21_net_15","object_type":"heat_network","variant_id":"p21","start_node_id":"p21_chamber_10","end_node_id":13,"flow_tph":19.77,"diameter":100,"length":9.31,"laying_method":"base","depth_start":3.0,"depth_end":3.0,"cost":835545.66,"k_special":1.0,"k_depth":1.0,"crossed":null,"serves_oks":[13],"turns":0}},{"type":"Feature","geometry":{"type":"LineString","coordinates":[[37.633848349,55.697644438],[37.632889099,55.697708852],[37.632095837,55.696951365],[37.631988430,55.696977049],[37.632034439,55.697045690]]},"properties":{"id":"p21_net_16","object_type":"heat_network","variant_id":"p21","start_node_id":"p21_chamber_10","end_node_id":15,"flow_tph":31.89,"diameter":125,"length":174.18,"laying_method":"base","depth_start":3.0,"depth_end":3.0,"cost":1.694292927E7,"k_special":1.0,"k_depth":1.0,"crossed":null,"serves_oks":[15],"turns":3}},{"type":"Feature","geometry":{"type":"LineString","coordinates":[[37.634486113,55.699600781],[37.634545935,55.699720348],[37.634582926,55.699854464]]},"properties":{"id":"p21_net_17","object_type":"heat_network","variant_id":"p21","start_node_id":"p21_chamber_7","end_node_id":2,"flow_tph":18.76,"diameter":100,"length":28.94,"laying_method":"base","depth_start":3.0,"depth_end":3.0,"cost":2596985.19,"k_special":1.0,"k_depth":1.0,"crossed":null,"serves_oks":[2],"turns":1,"approach":"вход не через ближайшую границу: трасса через неё 129 м против 29 м — необоснованный обход (§2.1)"}},{"type":"Feature","geometry":{"type":"LineString","coordinates":[[37.638524510,55.697730987],[37.634905458,55.698418092]]},"properties":{"id":"p21_net_18","object_type":"heat_network","variant_id":"p21","start_node_id":"p21_chamber_1","end_node_id":"p21_chamber_3","flow_tph":364.0,"diameter":300,"length":240.0,"laying_method":"base","depth_start":3.0,"depth_end":3.0,"cost":3.600528E7,"k_special":1.0,"k_depth":1.0,"crossed":null,"serves_oks":[1,4,2,11,8,6,3,12,13,15,14,9,10,5],"turns":0}},{"type":"Feature","geometry":{"type":"LineString","coordinates":[[37.633848349,55.697644438],[37.633786492,55.697522731],[37.633752441,55.697472329]]},"properties":{"id":"p21_net_19","object_type":"heat_network","variant_id":"p21","start_node_id":"p21_chamber_10","end_node_id":14,"flow_tph":19.73,"diameter":100,"length":20.1,"laying_method":"base","depth_start":3.0,"depth_end":3.0,"cost":1803707.4,"k_special":1.0,"k_depth":1.0,"crossed":null,"serves_oks":[14],"turns":1}},{"type":"Feature","geometry":{"type":"LineString","coordinates":[[37.632412771,55.700243731],[37.632592369,55.700335738],[37.632846602,55.700275760]]},"properties":{"id":"p21_net_20","object_type":"heat_network","variant_id":"p21","start_node_id":"p21_chamber_9","end_node_id":3,"flow_tph":29.42,"diameter":125,"length":32.56,"laying_method":"base","depth_start":3.0,"depth_end":3.0,"cost":3167253.71,"k_special":1.0,"k_depth":1.0,"crossed":null,"serves_oks":[3],"turns":1,"approach":"вход не через ближайшую границу: от неё нет допустимого маршрута (тупик/двор, отступы), взята ближайшая достижимая точка входа"}},{"type":"Feature","geometry":{"type":"LineString","coordinates":[[37.634347073,55.697525763],[37.634521297,55.697364119],[37.634446268,55.697252392]]},"properties":{"id":"p21_net_21","object_type":"heat_network","variant_id":"p21","start_node_id":"p21_chamber_5","end_node_id":9,"flow_tph":34.53,"diameter":125,"length":34.36,"laying_method":"base","depth_start":3.0,"depth_end":3.0,"cost":3342576.76,"k_special":1.0,"k_depth":1.0,"crossed":null,"serves_oks":[9],"turns":1}},{"type":"Feature","geometry":{"type":"LineString","coordinates":[[37.634347073,55.697525763],[37.635919543,55.697191529],[37.636093240,55.697296569]]},"properties":{"id":"p21_net_22","object_type":"heat_network","variant_id":"p21","start_node_id":"p21_chamber_5","end_node_id":10,"flow_tph":33.14,"diameter":125,"length":121.61,"laying_method":"base","depth_start":3.0,"depth_end":3.0,"cost":1.182970168E7,"k_special":1.0,"k_depth":1.0,"crossed":null,"serves_oks":[10],"turns":1,"approach":"вход не через ближайшую границу: от неё нет допустимого маршрута (тупик/двор, отступы), взята ближайшая достижимая точка входа"}},{"type":"Feature","geometry":{"type":"LineString","coordinates":[[37.634188399,55.699684450],[37.632999574,55.699857121]]},"properties":{"id":"p21_net_23","object_type":"heat_network","variant_id":"p21","start_node_id":"p21_chamber_6","end_node_id":"p21_chamber_11","flow_tph":67.52,"diameter":200,"length":77.16,"laying_method":"base","depth_start":3.0,"depth_end":3.0,"cost":9280031.88,"k_special":1.0,"k_depth":1.0,"crossed":null,"serves_oks":[11,8,6,3],"turns":0}},{"type":"Feature","geometry":{"type":"LineString","coordinates":[[37.632999574,55.699857121],[37.633022883,55.699614140],[37.633204499,55.699575075]]},"properties":{"id":"p21_net_24","object_type":"heat_network","variant_id":"p21","start_node_id":"p21_chamber_11","end_node_id":11,"flow_tph":4.08,"diameter":65,"length":39.3,"laying_method":"base","depth_start":3.0,"depth_end":3.0,"cost":3090171.12,"k_special":1.0,"k_depth":1.0,"crossed":null,"serves_oks":[11],"turns":1}},{"type":"Feature","geometry":{"type":"LineString","coordinates":[[37.632999574,55.699857121],[37.632412771,55.700243731]]},"properties":{"id":"p21_net_25","object_type":"heat_network","variant_id":"p21","start_node_id":"p21_chamber_11","end_node_id":"p21_chamber_9","flow_tph":63.44,"diameter":150,"length":56.67,"laying_method":"base","depth_start":3.0,"depth_end":3.0,"cost":5979595.04,"k_special":1.0,"k_depth":1.0,"crossed":null,"serves_oks":[8,6,3],"turns":0}},{"type":"Feature","geometry":{"type":"Point","coordinates":[37.638524510,55.697730987]},"properties":{"id":"p21_chamber_1","object_type":"heat_chamber","variant_id":"p21","diameter":400,"cost":5000000.0,"tie_in_pipe_id":126,"reason":"врезка в существующий участок 126: существующей камеры с запасом примыканий ближе 10 м нет (§2.4); ветвей: 2","connections":4}},{"type":"Feature","geometry":{"type":"Point","coordinates":[37.633651681,55.698656100]},"properties":{"id":"p21_chamber_2","object_type":"heat_chamber","variant_id":"p21","diameter":250,"cost":5000000.0,"tie_in_pipe_id":null,"reason":"разветвление (§2.1: только в тепловой камере): ДУ250 → точки [1, 4, 2, 11, 8, 6, 3]; ДУ125 → точки [12]","connections":3}},{"type":"Feature","geometry":{"type":"Point","coordinates":[37.634905458,55.698418092]},"properties":{"id":"p21_chamber_3","object_type":"heat_chamber","variant_id":"p21","diameter":300,"cost":5000000.0,"tie_in_pipe_id":null,"reason":"разветвление (§2.1: только в тепловой камере): ДУ250 → точки [1, 4, 2, 11, 8, 6, 3, 12]; ДУ200 → точки [13, 15, 14, 9, 10]; ДУ125 → точки [5]","connections":4}},{"type":"Feature","geometry":{"type":"Point","coordinates":[37.638039705,55.697063075]},"properties":{"id":"p21_chamber_4","object_type":"heat_chamber","variant_id":"p21","diameter":400,"cost":5000000.0,"tie_in_pipe_id":129,"reason":"врезка в существующий участок 129: существующей камеры с запасом примыканий ближе 10 м нет (§2.4); ветвей: 1","connections":3}},{"type":"Feature","geometry":{"type":"Point","coordinates":[37.634347073,55.697525763]},"properties":{"id":"p21_chamber_5","object_type":"heat_chamber","variant_id":"p21","diameter":200,"cost":3000000.0,"tie_in_pipe_id":null,"reason":"разветвление (§2.1: только в тепловой камере): ДУ200 → точки [13, 15, 14]; ДУ125 → точки [9]; ДУ125 → точки [10]","connections":4}},{"type":"Feature","geometry":{"type":"Point","coordinates":[37.634188399,55.699684450]},"properties":{"id":"p21_chamber_6","object_type":"heat_chamber","variant_id":"p21","diameter":250,"cost":5000000.0,"tie_in_pipe_id":null,"reason":"разветвление (§2.1: только в тепловой камере): ДУ200 → точки [1, 4, 2]; ДУ200 → точки [11, 8, 6, 3]","connections":3}},{"type":"Feature","geometry":{"type":"Point","coordinates":[37.634486113,55.699600781]},"properties":{"id":"p21_chamber_7","object_type":"heat_chamber","variant_id":"p21","diameter":200,"cost":3000000.0,"tie_in_pipe_id":null,"reason":"разветвление (§2.1: только в тепловой камере): ДУ125 → точки [1]; ДУ150 → точки [4]; ДУ100 → точки [2]","connections":4}},{"type":"Feature","geometry":{"type":"Point","coordinates":[37.639697263,55.698850788]},"properties":{"id":"p21_chamber_8","object_type":"heat_chamber","variant_id":"p21","diameter":400,"cost":5000000.0,"tie_in_pipe_id":124,"reason":"врезка в существующий участок 124: существующей камеры с запасом примыканий ближе 10 м нет (§2.4); ветвей: 1","connections":3}},{"type":"Feature","geometry":{"type":"Point","coordinates":[37.632412771,55.700243731]},"properties":{"id":"p21_chamber_9","object_type":"heat_chamber","variant_id":"p21","diameter":150,"cost":3000000.0,"tie_in_pipe_id":null,"reason":"разветвление (§2.1: только в тепловой камере): ДУ100 → точки [8]; ДУ100 → точки [6]; ДУ125 → точки [3]","connections":4}},{"type":"Feature","geometry":{"type":"Point","coordinates":[37.633848349,55.697644438]},"properties":{"id":"p21_chamber_10","object_type":"heat_chamber","variant_id":"p21","diameter":200,"cost":3000000.0,"tie_in_pipe_id":null,"reason":"разветвление (§2.1: только в тепловой камере): ДУ100 → точки [13]; ДУ125 → точки [15]; ДУ100 → точки [14]","connections":4}},{"type":"Feature","geometry":{"type":"Point","coordinates":[37.632999574,55.699857121]},"properties":{"id":"p21_chamber_11","object_type":"heat_chamber","variant_id":"p21","diameter":200,"cost":3000000.0,"tie_in_pipe_id":null,"reason":"разветвление (§2.1: только в тепловой камере): ДУ65 → точки [11]; ДУ150 → точки [8, 6, 3]","connections":3}},{"type":"Feature","geometry":null,"properties":{"id":"p21_summary","object_type":"variant_summary","variant_id":"p21","rank":2,"construction_cost":2.4126169181E8,"chamber_construction_cost":4.5E7,"existing_chamber_tie_in_count":0,"existing_chamber_tie_in_cost":0.0,"unconnected_penalty":0.0,"calculated_cost":2.4126169181E8,"new_network_length":1736.43,"score":11.9646,"unconnected_oks_ids":[],"engine_version":"1.0.0","description":"Присоединение к существующей сети: новая камера на участке 126, новая камера на участке 129, новая камера на участке 124; камер-разветвлений: 8; точки объединены в общие магистрали; другая трасса у точек: [1, 2, 3, 4, 5, 6] и ещё 9; к лучшему варианту: стоимость +2.6 млн ₽, длина +63 м","explanation":"Магистраль до ДУ300; присоединений к существующей сети: 3 — новая камера на участке 126 (392 т/ч), новая камера на участке 129 (21 т/ч), новая камера на участке 124 (76 т/ч); врезок в существующие камеры: 0; камер-разветвлений: 8; спецпроходов: 0; поворотов: 20; самая длинная трасса 639.1 м до точки 4.","cost_breakdown":{"pipes_by_diameter":{"DN65":{"length_m":39.3,"cost":3090171.12},"DN100":{"length_m":216.35,"cost":1.94172973E7},"DN125":{"length_m":484.3,"cost":4.710996575E7},"DN150":{"length_m":231.06,"cost":2.437849417E7},"DN200":{"length_m":321.6,"cost":3.868006061E7},"DN250":{"length_m":203.81,"cost":2.758042286E7},"DN300":{"length_m":240.0,"cost":3.600528E7}},"special_sections":{},"special_extra_cost":0.0,"new_chambers_cost":4.5E7,"existing_chamber_tie_ins":0,"tie_in_cost":0.0,"unconnected_penalty":0.0},"route_metrics":{"turns":20,"turns_45_or_90":1,"straight_segments":45,"avg_segment_m":38.59,"min_segment_m":6.0,"special_sections":0,"tie_in_points":3,"branch_chambers":8,"longest_path_m":639.1,"longest_path_to":4},"pareto_optimal":false,"route_overlap_with_better":0.61,"candidates_considered":52,"validation_errors":0,"validation_warnings":18}},{"type":"Feature","geometry":{"type":"LineString","coordinates":[[37.639697263,55.698850788],[37.640426213,55.698614133],[37.640764466,55.698407392]]},"properties":{"id":"p32_net_1","object_type":"heat_network","variant_id":"p32","start_node_id":"p32_chamber_2","end_node_id":16,"flow_tph":76.27,"diameter":200,"length":84.18,"laying_method":"base","depth_start":3.0,"depth_end":3.0,"cost":1.012492119E7,"k_special":1.0,"k_depth":1.0,"crossed":null,"serves_oks":[16],"turns":1,"approach":"вход не через ближайшую границу: трасса через неё 195 м против 84 м — необоснованный обход (§2.1)"}},{"type":"Feature","geometry":{"type":"LineString","coordinates":[[37.634296606,55.697432864],[37.633786492,55.697522731]]},"properties":{"id":"p32_net_2","object_type":"heat_network","variant_id":"p32","start_node_id":"p32_chamber_1","end_node_id":"p32_chamber_4","flow_tph":71.39,"diameter":200,"length":33.59,"laying_method":"base","depth_start":3.0,"depth_end":3.0,"cost":4039969.92,"k_special":1.0,"k_depth":1.0,"crossed":null,"serves_oks":[14,13,15],"turns":0}},{"type":"Feature","geometry":{"type":"LineString","coordinates":[[37.633786492,55.697522731],[37.633752441,55.697472329]]},"properties":{"id":"p32_net_3","object_type":"heat_network","variant_id":"p32","start_node_id":"p32_chamber_4","end_node_id":14,"flow_tph":19.73,"diameter":100,"length":6.0,"laying_method":"base","depth_start":3.0,"depth_end":3.0,"cost":538868.55,"k_special":1.0,"k_depth":1.0,"crossed":null,"serves_oks":[14],"turns":0}},{"type":"Feature","geometry":{"type":"LineString","coordinates":[[37.633786492,55.697522731],[37.633848349,55.697644438],[37.633901056,55.697722607]]},"properties":{"id":"p32_net_4","object_type":"heat_network","variant_id":"p32","start_node_id":"p32_chamber_4","end_node_id":13,"flow_tph":19.77,"diameter":100,"length":23.4,"laying_method":"base","depth_start":3.0,"depth_end":3.0,"cost":2100384.51,"k_special":1.0,"k_depth":1.0,"crossed":null,"serves_oks":[13],"turns":1}},{"type":"Feature","geometry":{"type":"LineString","coordinates":[[37.633568221,55.698830617],[37.633560073,55.699538998]]},"properties":{"id":"p32_net_5","object_type":"heat_network","variant_id":"p32","start_node_id":"p32_chamber_5","end_node_id":"p32_chamber_3","flow_tph":158.85,"diameter":250,"length":78.85,"laying_method":"base","depth_start":3.0,"depth_end":3.0,"cost":1.06696512E7,"k_special":1.0,"k_depth":1.0,"crossed":null,"serves_oks":[11,1,4,2,8,6,3],"turns":0}},{"type":"Feature","geometry":{"type":"LineString","coordinates":[[37.633568221,55.698830617],[37.633250352,55.698629192],[37.633139322,55.698653068]]},"properties":{"id":"p32_net_6","object_type":"heat_network","variant_id":"p32","start_node_id":"p32_chamber_5","end_node_id":12,"flow_tph":40.0,"diameter":125,"length":37.5,"laying_method":"base","depth_start":3.0,"depth_end":3.0,"cost":3647662.93,"k_special":1.0,"k_depth":1.0,"crossed":null,"serves_oks":[12],"turns":1}},{"type":"Feature","geometry":{"type":"LineString","coordinates":[[37.638039705,55.697063075],[37.639474382,55.696756702],[37.639538146,55.696851829]]},"properties":{"id":"p32_net_7","object_type":"heat_network","variant_id":"p32","start_node_id":"p32_chamber_6","end_node_id":17,"flow_tph":20.63,"diameter":100,"length":107.74,"laying_method":"base","depth_start":3.0,"depth_end":3.0,"cost":9669209.8,"k_special":1.0,"k_depth":1.0,"crossed":null,"serves_oks":[17],"turns":1}},{"type":"Feature","geometry":{"type":"LineString","coordinates":[[37.632384736,55.700241091],[37.632335607,55.700285759],[37.632202634,55.700314417]]},"properties":{"id":"p32_net_8","object_type":"heat_network","variant_id":"p32","start_node_id":"p32_chamber_7","end_node_id":8,"flow_tph":18.03,"diameter":100,"length":14.8,"laying_method":"base","depth_start":3.0,"depth_end":3.0,"cost":1328155.51,"k_special":1.0,"k_depth":1.0,"crossed":null,"serves_oks":[8],"turns":1}},{"type":"Feature","geometry":{"type":"LineString","coordinates":[[37.632384736,55.700241091],[37.632060759,55.700119529],[37.632012226,55.700048261]]},"properties":{"id":"p32_net_9","object_type":"heat_network","variant_id":"p32","start_node_id":"p32_chamber_7","end_node_id":6,"flow_tph":15.99,"diameter":100,"length":32.95,"laying_method":"base","depth_start":3.0,"depth_end":3.0,"cost":2956961.92,"k_special":1.0,"k_depth":1.0,"crossed":null,"serves_oks":[6],"turns":1}},{"type":"Feature","geometry":{"type":"LineString","coordinates":[[37.633560073,55.699538998],[37.633455450,55.699513880],[37.633204499,55.699575075]]},"properties":{"id":"p32_net_10","object_type":"heat_network","variant_id":"p32","start_node_id":"p32_chamber_3","end_node_id":11,"flow_tph":4.08,"diameter":65,"length":24.33,"laying_method":"base","depth_start":3.0,"depth_end":3.0,"cost":1912891.53,"k_special":1.0,"k_depth":1.0,"crossed":null,"serves_oks":[11],"turns":1,"approach":"вход не через ближайшую границу: трасса через неё 64 м против 24 м — необоснованный обход (§2.1)"}},{"type":"Feature","geometry":{"type":"LineString","coordinates":[[37.634296606,55.697432864],[37.634632554,55.698446721]]},"properties":{"id":"p32_net_11","object_type":"heat_network","variant_id":"p32","start_node_id":"p32_chamber_1","end_node_id":"p32_chamber_8","flow_tph":224.94,"diameter":250,"length":114.8,"laying_method":"base","depth_start":3.0,"depth_end":3.0,"cost":1.553550426E7,"k_special":1.0,"k_depth":1.0,"crossed":null,"serves_oks":[11,1,4,2,8,6,3,12,5],"turns":0}},{"type":"Feature","geometry":{"type":"LineString","coordinates":[[37.634632554,55.698446721],[37.633568221,55.698830617]]},"properties":{"id":"p32_net_12","object_type":"heat_network","variant_id":"p32","start_node_id":"p32_chamber_8","end_node_id":"p32_chamber_5","flow_tph":198.85,"diameter":250,"length":79.38,"laying_method":"base","depth_start":3.0,"depth_end":3.0,"cost":1.074225393E7,"k_special":1.0,"k_depth":1.0,"crossed":null,"serves_oks":[11,1,4,2,8,6,3,12],"turns":0}},{"type":"Feature","geometry":{"type":"LineString","coordinates":[[37.634632554,55.698446721],[37.635185192,55.698508146],[37.635417056,55.698614732]]},"properties":{"id":"p32_net_13","object_type":"heat_network","variant_id":"p32","start_node_id":"p32_chamber_8","end_node_id":5,"flow_tph":26.09,"diameter":125,"length":54.2,"laying_method":"base","depth_start":3.0,"depth_end":3.0,"cost":5271972.5,"k_special":1.0,"k_depth":1.0,"crossed":null,"serves_oks":[5],"turns":1,"approach":"вход не через ближайшую границу: от неё нет допустимого маршрута (тупик/двор, отступы), взята ближайшая достижимая точка входа"}},{"type":"Feature","geometry":{"type":"LineString","coordinates":[[37.633786492,55.697522731],[37.632881715,55.697712877],[37.632096112,55.696951134],[37.631988430,55.696977049],[37.632034439,55.697045690]]},"properties":{"id":"p32_net_14","object_type":"heat_network","variant_id":"p32","start_node_id":"p32_chamber_4","end_node_id":15,"flow_tph":31.89,"diameter":125,"length":174.33,"laying_method":"base","depth_start":3.0,"depth_end":3.0,"cost":1.695772561E7,"k_special":1.0,"k_depth":1.0,"crossed":null,"serves_oks":[15],"turns":3}},{"type":"Feature","geometry":{"type":"LineString","coordinates":[[37.632902729,55.700071552],[37.632480085,55.700175883],[37.632384736,55.700241091]]},"properties":{"id":"p32_net_15","object_type":"heat_network","variant_id":"p32","start_node_id":"p32_chamber_9","end_node_id":"p32_chamber_7","flow_tph":34.02,"diameter":125,"length":38.4,"laying_method":"base","depth_start":3.0,"depth_end":3.0,"cost":3735842.91,"k_special":1.0,"k_depth":1.0,"crossed":null,"serves_oks":[8,6],"turns":1}},{"type":"Feature","geometry":{"type":"LineString","coordinates":[[37.632902729,55.700071552],[37.632882085,55.700097735],[37.632846602,55.700275760]]},"properties":{"id":"p32_net_16","object_type":"heat_network","variant_id":"p32","start_node_id":"p32_chamber_9","end_node_id":3,"flow_tph":29.42,"diameter":125,"length":23.13,"laying_method":"base","depth_start":3.0,"depth_end":3.0,"cost":2249942.89,"k_special":1.0,"k_depth":1.0,"crossed":null,"serves_oks":[3],"turns":1,"approach":"вход не через ближайшую границу: от неё нет допустимого маршрута (тупик/двор, отступы), взята ближайшая достижимая точка входа"}},{"type":"Feature","geometry":{"type":"LineString","coordinates":[[37.634600339,55.697379354],[37.634296606,55.697432864]]},"properties":{"id":"p32_net_17","object_type":"heat_network","variant_id":"p32","start_node_id":"p32_chamber_10","end_node_id":"p32_chamber_1","flow_tph":296.33,"diameter":300,"length":20.0,"laying_method":"base","depth_start":3.0,"depth_end":3.0,"cost":3000440.0,"k_special":1.0,"k_depth":1.0,"crossed":null,"serves_oks":[14,13,15,11,1,4,2,8,6,3,12,5],"turns":0}},{"type":"Feature","geometry":{"type":"LineString","coordinates":[[37.634600339,55.697379354],[37.634521297,55.697364119],[37.634446268,55.697252392]]},"properties":{"id":"p32_net_18","object_type":"heat_network","variant_id":"p32","start_node_id":"p32_chamber_10","end_node_id":9,"flow_tph":34.53,"diameter":125,"length":18.55,"laying_method":"base","depth_start":3.0,"depth_end":3.0,"cost":1804424.08,"k_special":1.0,"k_depth":1.0,"crossed":null,"serves_oks":[9],"turns":1}},{"type":"Feature","geometry":{"type":"LineString","coordinates":[[37.634486113,55.699600781],[37.634405404,55.699481064]]},"properties":{"id":"p32_net_19","object_type":"heat_network","variant_id":"p32","start_node_id":"p32_chamber_11","end_node_id":1,"flow_tph":24.87,"diameter":125,"length":14.26,"laying_method":"base","depth_start":3.0,"depth_end":3.0,"cost":1386920.65,"k_special":1.0,"k_depth":1.0,"crossed":null,"serves_oks":[1],"turns":0}},{"type":"Feature","geometry":{"type":"LineString","coordinates":[[37.634486113,55.699600781],[37.635302695,55.699567008],[37.636262443,55.700285769],[37.636441493,55.700243641],[37.636381851,55.700155199]]},"properties":{"id":"p32_net_20","object_type":"heat_network","variant_id":"p32","start_node_id":"p32_chamber_11","end_node_id":4,"flow_tph":47.7,"diameter":150,"length":174.39,"laying_method":"base","depth_start":3.0,"depth_end":3.0,"cost":1.839889914E7,"k_special":1.0,"k_depth":1.0,"crossed":null,"serves_oks":[4],"turns":3}},{"type":"Feature","geometry":{"type":"LineString","coordinates":[[37.633560073,55.699538998],[37.634183051,55.699660314],[37.634486113,55.699600781]]},"properties":{"id":"p32_net_21","object_type":"heat_network","variant_id":"p32","start_node_id":"p32_chamber_3","end_node_id":"p32_chamber_11","flow_tph":91.33,"diameter":200,"length":61.59,"laying_method":"base","depth_start":3.0,"depth_end":3.0,"cost":7407698.07,"k_special":1.0,"k_depth":1.0,"crossed":null,"serves_oks":[1,4,2],"turns":1}},{"type":"Feature","geometry":{"type":"LineString","coordinates":[[37.634486113,55.699600781],[37.634545935,55.699720348],[37.634582926,55.699854464]]},"properties":{"id":"p32_net_22","object_type":"heat_network","variant_id":"p32","start_node_id":"p32_chamber_11","end_node_id":2,"flow_tph":18.76,"diameter":100,"length":28.94,"laying_method":"base","depth_start":3.0,"depth_end":3.0,"cost":2596985.19,"k_special":1.0,"k_depth":1.0,"crossed":null,"serves_oks":[2],"turns":1,"approach":"вход не через ближайшую границу: трасса через неё 142 м против 29 м — необоснованный обход (§2.1)"}},{"type":"Feature","geometry":{"type":"LineString","coordinates":[[37.638461839,55.697638533],[37.637995736,55.697696460]]},"properties":{"id":"p32_net_23","object_type":"heat_network","variant_id":"p32","start_node_id":106,"end_node_id":"p32_chamber_12","flow_tph":391.82,"diameter":300,"length":30.0,"laying_method":"base","depth_start":3.0,"depth_end":3.0,"cost":4500660.0,"k_special":1.0,"k_depth":1.0,"crossed":null,"serves_oks":[7,14,13,15,11,1,4,2,8,6,3,12,5,9,10],"turns":0}},{"type":"Feature","geometry":{"type":"LineString","coordinates":[[37.637995736,55.697696460],[37.638217218,55.697863252],[37.638280304,55.697956786]]},"properties":{"id":"p32_net_24","object_type":"heat_network","variant_id":"p32","start_node_id":"p32_chamber_12","end_node_id":7,"flow_tph":27.82,"diameter":125,"length":34.34,"laying_method":"base","depth_start":3.0,"depth_end":3.0,"cost":3340905.33,"k_special":1.0,"k_depth":1.0,"crossed":null,"serves_oks":[7],"turns":1}},{"type":"Feature","geometry":{"type":"LineString","coordinates":[[37.633560073,55.699538998],[37.633511151,55.699590261],[37.632902729,55.700071552]]},"properties":{"id":"p32_net_25","object_type":"heat_network","variant_id":"p32","start_node_id":"p32_chamber_3","end_node_id":"p32_chamber_9","flow_tph":63.44,"diameter":150,"length":72.3,"laying_method":"base","depth_start":3.0,"depth_end":3.0,"cost":7628198.69,"k_special":1.0,"k_depth":1.0,"crossed":null,"serves_oks":[8,6,3],"turns":1}},{"type":"Feature","geometry":{"type":"LineString","coordinates":[[37.637995736,55.697696460],[37.637368603,55.697730554],[37.636207906,55.697132378],[37.635967128,55.697138550]]},"properties":{"id":"p32_net_26","object_type":"heat_network","variant_id":"p32","start_node_id":"p32_chamber_12","end_node_id":"p32_chamber_13","flow_tph":364.0,"diameter":300,"length":153.53,"laying_method":"base","depth_start":3.0,"depth_end":3.0,"cost":2.30323923E7,"k_special":1.0,"k_depth":1.0,"crossed":null,"serves_oks":[14,13,15,11,1,4,2,8,6,3,12,5,9,10],"turns":2}},{"type":"Feature","geometry":{"type":"LineString","coordinates":[[37.635967128,55.697138550],[37.634600339,55.697379354]]},"properties":{"id":"p32_net_27","object_type":"heat_network","variant_id":"p32","start_node_id":"p32_chamber_13","end_node_id":"p32_chamber_10","flow_tph":330.86,"diameter":300,"length":90.0,"laying_method":"base","depth_start":3.0,"depth_end":3.0,"cost":1.350198E7,"k_special":1.0,"k_depth":1.0,"crossed":null,"serves_oks":[14,13,15,11,1,4,2,8,6,3,12,5,9],"turns":0}},{"type":"Feature","geometry":{"type":"LineString","coordinates":[[37.635967128,55.697138550],[37.635982541,55.697177640],[37.636093240,55.697296569]]},"properties":{"id":"p32_net_28","object_type":"heat_network","variant_id":"p32","start_node_id":"p32_chamber_13","end_node_id":10,"flow_tph":33.14,"diameter":125,"length":19.41,"laying_method":"base","depth_start":3.0,"depth_end":3.0,"cost":1888297.04,"k_special":1.0,"k_depth":1.0,"crossed":null,"serves_oks":[10],"turns":1,"approach":"вход не через ближайшую границу: от неё нет допустимого маршрута (тупик/двор, отступы), взята ближайшая достижимая точка входа"}},{"type":"Feature","geometry":{"type":"Point","coordinates":[37.634296606,55.697432864]},"properties":{"id":"p32_chamber_1","object_type":"heat_chamber","variant_id":"p32","diameter":300,"cost":5000000.0,"tie_in_pipe_id":null,"reason":"разветвление (§2.1: только в тепловой камере): ДУ200 → точки [14, 13, 15]; ДУ250 → точки [11, 1, 4, 2, 8, 6, 3, 12, 5]","connections":3}},{"type":"Feature","geometry":{"type":"Point","coordinates":[37.639697263,55.698850788]},"properties":{"id":"p32_chamber_2","object_type":"heat_chamber","variant_id":"p32","diameter":400,"cost":5000000.0,"tie_in_pipe_id":124,"reason":"врезка в существующий участок 124: существующей камеры с запасом примыканий ближе 10 м нет (§2.4); ветвей: 1","connections":3}},{"type":"Feature","geometry":{"type":"Point","coordinates":[37.633560073,55.699538998]},"properties":{"id":"p32_chamber_3","object_type":"heat_chamber","variant_id":"p32","diameter":250,"cost":5000000.0,"tie_in_pipe_id":null,"reason":"разветвление (§2.1: только в тепловой камере): ДУ65 → точки [11]; ДУ200 → точки [1, 4, 2]; ДУ150 → точки [8, 6, 3]","connections":4}},{"type":"Feature","geometry":{"type":"Point","coordinates":[37.633786492,55.697522731]},"properties":{"id":"p32_chamber_4","object_type":"heat_chamber","variant_id":"p32","diameter":200,"cost":3000000.0,"tie_in_pipe_id":null,"reason":"разветвление (§2.1: только в тепловой камере): ДУ100 → точки [14]; ДУ100 → точки [13]; ДУ125 → точки [15]","connections":4}},{"type":"Feature","geometry":{"type":"Point","coordinates":[37.633568221,55.698830617]},"properties":{"id":"p32_chamber_5","object_type":"heat_chamber","variant_id":"p32","diameter":250,"cost":5000000.0,"tie_in_pipe_id":null,"reason":"разветвление (§2.1: только в тепловой камере): ДУ250 → точки [11, 1, 4, 2, 8, 6, 3]; ДУ125 → точки [12]","connections":3}},{"type":"Feature","geometry":{"type":"Point","coordinates":[37.638039705,55.697063075]},"properties":{"id":"p32_chamber_6","object_type":"heat_chamber","variant_id":"p32","diameter":400,"cost":5000000.0,"tie_in_pipe_id":129,"reason":"врезка в существующий участок 129: существующей камеры с запасом примыканий ближе 10 м нет (§2.4); ветвей: 1","connections":3}},{"type":"Feature","geometry":{"type":"Point","coordinates":[37.632384736,55.700241091]},"properties":{"id":"p32_chamber_7","object_type":"heat_chamber","variant_id":"p32","diameter":125,"cost":3000000.0,"tie_in_pipe_id":null,"reason":"разветвление (§2.1: только в тепловой камере): ДУ100 → точки [8]; ДУ100 → точки [6]","connections":3}},{"type":"Feature","geometry":{"type":"Point","coordinates":[37.634632554,55.698446721]},"properties":{"id":"p32_chamber_8","object_type":"heat_chamber","variant_id":"p32","diameter":250,"cost":5000000.0,"tie_in_pipe_id":null,"reason":"разветвление (§2.1: только в тепловой камере): ДУ250 → точки [11, 1, 4, 2, 8, 6, 3, 12]; ДУ125 → точки [5]","connections":3}},{"type":"Feature","geometry":{"type":"Point","coordinates":[37.632902729,55.700071552]},"properties":{"id":"p32_chamber_9","object_type":"heat_chamber","variant_id":"p32","diameter":150,"cost":3000000.0,"tie_in_pipe_id":null,"reason":"разветвление (§2.1: только в тепловой камере): ДУ125 → точки [8, 6]; ДУ125 → точки [3]","connections":3}},{"type":"Feature","geometry":{"type":"Point","coordinates":[37.634600339,55.697379354]},"properties":{"id":"p32_chamber_10","object_type":"heat_chamber","variant_id":"p32","diameter":300,"cost":5000000.0,"tie_in_pipe_id":null,"reason":"разветвление (§2.1: только в тепловой камере): ДУ300 → точки [14, 13, 15, 11, 1, 4, 2, 8, 6, 3, 12, 5]; ДУ125 → точки [9]","connections":3}},{"type":"Feature","geometry":{"type":"Point","coordinates":[37.634486113,55.699600781]},"properties":{"id":"p32_chamber_11","object_type":"heat_chamber","variant_id":"p32","diameter":200,"cost":3000000.0,"tie_in_pipe_id":null,"reason":"разветвление (§2.1: только в тепловой камере): ДУ125 → точки [1]; ДУ150 → точки [4]; ДУ100 → точки [2]","connections":4}},{"type":"Feature","geometry":{"type":"Point","coordinates":[37.637995736,55.697696460]},"properties":{"id":"p32_chamber_12","object_type":"heat_chamber","variant_id":"p32","diameter":300,"cost":5000000.0,"tie_in_pipe_id":null,"reason":"разветвление (§2.1: только в тепловой камере): ДУ125 → точки [7]; ДУ300 → точки [14, 13, 15, 11, 1, 4, 2, 8, 6, 3, 12, 5, 9, 10]","connections":3}},{"type":"Feature","geometry":{"type":"Point","coordinates":[37.635967128,55.697138550]},"properties":{"id":"p32_chamber_13","object_type":"heat_chamber","variant_id":"p32","diameter":300,"cost":5000000.0,"tie_in_pipe_id":null,"reason":"разветвление (§2.1: только в тепловой камере): ДУ300 → точки [14, 13, 15, 11, 1, 4, 2, 8, 6, 3, 12, 5, 9]; ДУ125 → точки [10]","connections":3}},{"type":"Feature","geometry":null,"properties":{"id":"p32_summary","object_type":"variant_summary","variant_id":"p32","rank":3,"construction_cost":2.5196971965E8,"chamber_construction_cost":5.7E7,"existing_chamber_tie_in_count":1,"existing_chamber_tie_in_cost":5000000.0,"unconnected_penalty":0.0,"calculated_cost":2.5196971965E8,"new_network_length":1644.89,"score":11.9898,"unconnected_oks_ids":[],"engine_version":"1.0.0","description":"Присоединение к существующей сети: существующая камера 106, новая камера на участке 124, новая камера на участке 129; камер-разветвлений: 11; точки объединены в общие магистрали; другая трасса у точек: [1, 2, 3, 4, 5, 6] и ещё 9; к лучшему варианту: стоимость +13.3 млн ₽, длина -28 м","explanation":"Магистраль до ДУ300; присоединений к существующей сети: 3 — камера 106 (392 т/ч), новая камера на участке 124 (76 т/ч), новая камера на участке 129 (21 т/ч); врезок в существующие камеры: 1; камер-разветвлений: 11; спецпроходов: 0; поворотов: 24; самая длинная трасса 802.53 м до точки 4.","cost_breakdown":{"pipes_by_diameter":{"DN65":{"length_m":24.33,"cost":1912891.53},"DN100":{"length_m":213.83,"cost":1.919056548E7},"DN125":{"length_m":414.12,"cost":4.028369393E7},"DN150":{"length_m":246.69,"cost":2.602709783E7},"DN200":{"length_m":179.36,"cost":2.157258918E7},"DN250":{"length_m":273.03,"cost":3.694740939E7},"DN300":{"length_m":293.53,"cost":4.40354723E7}},"special_sections":{},"special_extra_cost":0.0,"new_chambers_cost":5.7E7,"existing_chamber_tie_ins":1,"tie_in_cost":5000000.0,"unconnected_penalty":0.0},"route_metrics":{"turns":24,"turns_45_or_90":2,"straight_segments":52,"avg_segment_m":31.63,"min_segment_m":3.19,"special_sections":0,"tie_in_points":3,"branch_chambers":11,"longest_path_m":802.53,"longest_path_to":4},"pareto_optimal":true,"route_overlap_with_better":0.64,"candidates_considered":52,"validation_errors":0,"validation_warnings":18}}]}