{"type": "FeatureCollection", "name": "02_building_detour", "features": [{"type": "Feature", "properties": {"id": "src", "object_type": "source", "name": "источник"}, "geometry": {"type": "Point", "coordinates": [37.63464897718117, 55.69518424534124]}}, {"type": "Feature", "properties": {"id": "net_1", "object_type": "heat_network", "diameter": 300}, "geometry": {"type": "LineString", "coordinates": [[37.629400533051616, 55.69512577008925], [37.6317861870786, 55.69515237755087]]}}, {"type": "Feature", "properties": {"id": "net_2", "object_type": "heat_network", "diameter": 300}, "geometry": {"type": "LineString", "coordinates": [[37.6317861870786, 55.69515237755087], [37.63464897718117, 55.69518424534124]]}}, {"type": "Feature", "properties": {"id": "ch_1", "object_type": "heat_chamber"}, "geometry": {"type": "Point", "coordinates": [37.6317861870786, 55.69515237755087]}}, {"type": "Feature", "properties": {"id": "bld_obstacle", "object_type": "restriction", "restriction_type": "oks"}, "geometry": {"type": "Polygon", "coordinates": [[[37.63241295279351, 55.69542894998699], [37.63240040672254, 55.695788263218354], [37.631128036431676, 55.695774084596145], [37.63114059416622, 55.695414771554645], [37.63241295279351, 55.69542894998699]]]}}, {"type": "Feature", "properties": {"id": "bld_target", "object_type": "restriction", "restriction_type": "oks"}, "geometry": {"type": "Polygon", "coordinates": [[[37.63206976477259, 55.69614403295934], [37.632060352633204, 55.696413517814875], [37.631424157281806, 55.696406428337625], [37.63143357379522, 55.69613694355329], [37.63206976477259, 55.69614403295934]]]}}, {"type": "Feature", "properties": {"id": "oks_1", "object_type": "oks_connection_point", "flow_tph": 20.0}, "geometry": {"type": "Point", "coordinates": [37.631746962105176, 55.6962752310798]}}]}