{"type": "FeatureCollection", "name": "03_road_crossing", "features": [{"type": "Feature", "properties": {"id": "src", "object_type": "source", "name": "источник"}, "geometry": {"type": "Point", "coordinates": [37.63464897718117, 55.69518424534124]}}, {"type": "Feature", "properties": {"id": "net_1", "object_type": "heat_network", "diameter": 300}, "geometry": {"type": "LineString", "coordinates": [[37.629400533051616, 55.69512577008925], [37.6317861870786, 55.69515237755087]]}}, {"type": "Feature", "properties": {"id": "net_2", "object_type": "heat_network", "diameter": 300}, "geometry": {"type": "LineString", "coordinates": [[37.6317861870786, 55.69515237755087], [37.63464897718117, 55.69518424534124]]}}, {"type": "Feature", "properties": {"id": "ch_1", "object_type": "heat_chamber"}, "geometry": {"type": "Point", "coordinates": [37.6317861870786, 55.69515237755087]}}, {"type": "Feature", "properties": {"id": "road_1", "object_type": "restriction", "restriction_type": "road"}, "geometry": {"type": "Polygon", "coordinates": [[[37.63654499915283, 55.695564767330374], [37.63653874507078, 55.69574442425401], [37.626995989776916, 55.69563808494384], [37.62700228759738, 55.695458428732245], [37.63654499915283, 55.695564767330374]]]}}, {"type": "Feature", "properties": {"id": "oks_1", "object_type": "oks_connection_point", "flow_tph": 20.0}, "geometry": {"type": "Point", "coordinates": [37.63175480732171, 55.69605066039201]}}]}