{"type": "FeatureCollection", "name": "04_shared_trunk", "features": [{"type": "Feature", "properties": {"id": "src", "object_type": "source", "name": "источник"}, "geometry": {"type": "Point", "coordinates": [37.63464897718117, 55.69518424534124]}}, {"type": "Feature", "properties": {"id": "net_1", "object_type": "heat_network", "diameter": 300}, "geometry": {"type": "LineString", "coordinates": [[37.629400533051616, 55.69512577008925], [37.6317861870786, 55.69515237755087]]}}, {"type": "Feature", "properties": {"id": "net_2", "object_type": "heat_network", "diameter": 300}, "geometry": {"type": "LineString", "coordinates": [[37.6317861870786, 55.69515237755087], [37.63464897718117, 55.69518424534124]]}}, {"type": "Feature", "properties": {"id": "ch_1", "object_type": "heat_chamber"}, "geometry": {"type": "Point", "coordinates": [37.6317861870786, 55.69515237755087]}}, {"type": "Feature", "properties": {"id": "oks_a", "object_type": "oks_connection_point", "flow_tph": 20.0}, "geometry": {"type": "Point", "coordinates": [37.63145346049801, 55.69784456671416]}}, {"type": "Feature", "properties": {"id": "oks_b", "object_type": "oks_connection_point", "flow_tph": 20.0}, "geometry": {"type": "Point", "coordinates": [37.6319306245086, 55.69784988410694]}}]}