{"type": "FeatureCollection", "name": "05_courtyard", "features": [{"type": "Feature", "properties": {"id": "src", "object_type": "source", "name": "источник"}, "geometry": {"type": "Point", "coordinates": [37.63464897718117, 55.69518424534124]}}, {"type": "Feature", "properties": {"id": "net_1", "object_type": "heat_network", "diameter": 300}, "geometry": {"type": "LineString", "coordinates": [[37.629400533051616, 55.69512577008925], [37.6317861870786, 55.69515237755087]]}}, {"type": "Feature", "properties": {"id": "net_2", "object_type": "heat_network", "diameter": 300}, "geometry": {"type": "LineString", "coordinates": [[37.6317861870786, 55.69515237755087], [37.63464897718117, 55.69518424534124]]}}, {"type": "Feature", "properties": {"id": "ch_1", "object_type": "heat_chamber"}, "geometry": {"type": "Point", "coordinates": [37.6317861870786, 55.69515237755087]}}, {"type": "Feature", "properties": {"id": "bld_u", "object_type": "restriction", "restriction_type": "oks"}, "geometry": {"type": "Polygon", "coordinates": [[[37.63109664085239, 55.69667236709906], [37.632369040303345, 55.696686546196], [37.632390996983055, 55.69605774812677], [37.63239256528406, 55.69601283397627], [37.631120187703324, 55.69599865523537], [37.63111861794433, 55.696043569362146], [37.63109664085239, 55.69667236709906]], [[37.63213673983906, 55.69650423205311], [37.63134149382729, 55.69649537017687], [37.631357188927566, 55.69604622888449], [37.63215242582678, 55.69605509061238], [37.63213673983906, 55.69650423205311]]]}}, {"type": "Feature", "properties": {"id": "oks_1", "object_type": "oks_connection_point", "flow_tph": 20.0}, "geometry": {"type": "Point", "coordinates": [37.631236438024736, 55.69631447259902]}}]}