{"type": "FeatureCollection", "name": "07_school_territory", "features": [{"type": "Feature", "properties": {"id": "src", "object_type": "source", "name": "источник"}, "geometry": {"type": "Point", "coordinates": [37.63464897718117, 55.69518424534124]}}, {"type": "Feature", "properties": {"id": "net_1", "object_type": "heat_network", "diameter": 300}, "geometry": {"type": "LineString", "coordinates": [[37.629400533051616, 55.69512577008925], [37.6317861870786, 55.69515237755087]]}}, {"type": "Feature", "properties": {"id": "net_2", "object_type": "heat_network", "diameter": 300}, "geometry": {"type": "LineString", "coordinates": [[37.6317861870786, 55.69515237755087], [37.63464897718117, 55.69518424534124]]}}, {"type": "Feature", "properties": {"id": "ch_1", "object_type": "heat_chamber"}, "geometry": {"type": "Point", "coordinates": [37.6317861870786, 55.69515237755087]}}, {"type": "Feature", "properties": {"id": "school_area", "object_type": "restriction", "restriction_type": "social_area"}, "geometry": {"type": "Polygon", "coordinates": [[[37.632880681325254, 55.695703748480156], [37.63283678339918, 55.69696134487774], [37.63061006905055, 55.696936531208905], [37.63065403841926, 55.69567893597435], [37.632880681325254, 55.695703748480156]]]}}, {"type": "Feature", "properties": {"id": "school_bld", "object_type": "restriction", "restriction_type": "oks"}, "geometry": {"type": "Polygon", "coordinates": [[[37.63214928866473, 55.69614491890341], [37.63213673983906, 55.69650423205311], [37.63134149382729, 55.69649537017687], [37.63135404994302, 55.69613605714584], [37.63214928866473, 55.69614491890341]]]}}, {"type": "Feature", "properties": {"id": "oks_1", "object_type": "oks_connection_point", "flow_tph": 20.0}, "geometry": {"type": "Point", "coordinates": [37.631745393048554, 55.696320145216276]}}]}