{"type": "FeatureCollection", "name": "10_unreachable", "features": [{"type": "Feature", "properties": {"id": "src", "object_type": "source", "name": "источник"}, "geometry": {"type": "Point", "coordinates": [37.63464897718117, 55.69518424534124]}}, {"type": "Feature", "properties": {"id": "net_1", "object_type": "heat_network", "diameter": 300}, "geometry": {"type": "LineString", "coordinates": [[37.629400533051616, 55.69512577008925], [37.6317861870786, 55.69515237755087]]}}, {"type": "Feature", "properties": {"id": "net_2", "object_type": "heat_network", "diameter": 300}, "geometry": {"type": "LineString", "coordinates": [[37.6317861870786, 55.69515237755087], [37.63464897718117, 55.69518424534124]]}}, {"type": "Feature", "properties": {"id": "ch_1", "object_type": "heat_chamber"}, "geometry": {"type": "Point", "coordinates": [37.6317861870786, 55.69515237755087]}}, {"type": "Feature", "properties": {"id": "water_ring", "object_type": "restriction", "restriction_type": "water"}, "geometry": {"type": "Polygon", "coordinates": [[[37.63412485680864, 55.69652636421808], [37.63409352906728, 55.69742464773254], [37.63568406108844, 55.69744233088729], [37.635715352377765, 55.696544046780815], [37.63412485680864, 55.69652636421808]], [[37.63552813737975, 55.697350735100365], [37.634255714679036, 55.697336588623926], [37.634280773955965, 55.696617961764986], [37.635553173327374, 55.696632107862534], [37.63552813737975, 55.697350735100365]]]}}, {"type": "Feature", "properties": {"id": "oks_trapped", "object_type": "oks_connection_point", "flow_tph": 10.0}, "geometry": {"type": "Point", "coordinates": [37.63490444983553, 55.69698434999708]}}, {"type": "Feature", "properties": {"id": "oks_ok", "object_type": "oks_connection_point", "flow_tph": 20.0}, "geometry": {"type": "Point", "coordinates": [37.63175480732171, 55.69605066039201]}}]}