{"type": "FeatureCollection", "name": "11_tram_diagonal", "features": [{"type": "Feature", "properties": {"id": "src", "object_type": "source", "name": "источник"}, "geometry": {"type": "Point", "coordinates": [37.63464897718117, 55.69518424534124]}}, {"type": "Feature", "properties": {"id": "net_1", "object_type": "heat_network", "diameter": 300}, "geometry": {"type": "LineString", "coordinates": [[37.629400533051616, 55.69512577008925], [37.6317861870786, 55.69515237755087]]}}, {"type": "Feature", "properties": {"id": "net_2", "object_type": "heat_network", "diameter": 300}, "geometry": {"type": "LineString", "coordinates": [[37.6317861870786, 55.69515237755087], [37.63464897718117, 55.69518424534124]]}}, {"type": "Feature", "properties": {"id": "ch_1", "object_type": "heat_chamber"}, "geometry": {"type": "Point", "coordinates": [37.6317861870786, 55.69515237755087]}}, {"type": "Feature", "properties": {"id": "tram_1", "object_type": "restriction", "restriction_type": "tram_tracks"}, "geometry": {"type": "Polygon", "coordinates": [[[37.636472786352094, 55.697025889091776], [37.63651714265185, 55.69697815602036], [37.62706855259769, 55.69417697026972], [37.62702418806721, 55.69422469990543], [37.636472786352094, 55.697025889091776]]]}}, {"type": "Feature", "properties": {"id": "oks_1", "object_type": "oks_connection_point", "flow_tph": 20.0}, "geometry": {"type": "Point", "coordinates": [37.633644574695374, 55.69661088377342]}}]}