{"type": "FeatureCollection", "name": "12_two_points_one_building", "features": [{"type": "Feature", "properties": {"id": "src", "object_type": "source", "name": "источник"}, "geometry": {"type": "Point", "coordinates": [37.63464897718117, 55.69518424534124]}}, {"type": "Feature", "properties": {"id": "net_1", "object_type": "heat_network", "diameter": 300}, "geometry": {"type": "LineString", "coordinates": [[37.629400533051616, 55.69512577008925], [37.6317861870786, 55.69515237755087]]}}, {"type": "Feature", "properties": {"id": "net_2", "object_type": "heat_network", "diameter": 300}, "geometry": {"type": "LineString", "coordinates": [[37.6317861870786, 55.69515237755087], [37.63464897718117, 55.69518424534124]]}}, {"type": "Feature", "properties": {"id": "ch_1", "object_type": "heat_chamber"}, "geometry": {"type": "Point", "coordinates": [37.6317861870786, 55.69515237755087]}}, {"type": "Feature", "properties": {"id": "bld", "object_type": "restriction", "restriction_type": "oks"}, "geometry": {"type": "Polygon", "coordinates": [[[37.63266205176318, 55.697408715284034], [37.63264950704729, 55.69776802843612], [37.6307408553795, 55.69774675893623], [37.63075341759293, 55.69738744606899], [37.63266205176318, 55.697408715284034]]]}}, {"type": "Feature", "properties": {"id": "oks_a", "object_type": "oks_connection_point", "flow_tph": 15.0}, "geometry": {"type": "Point", "coordinates": [37.63106524349737, 55.69757064945796]}}, {"type": "Feature", "properties": {"id": "oks_b", "object_type": "oks_connection_point", "flow_tph": 25.0}, "geometry": {"type": "Point", "coordinates": [37.63233767211007, 55.69758482902961]}}]}